<?xml version="1.0" encoding="UTF-8"?>
<kml xmlns="http://www.opengis.net/kml/2.2"><Document><Placemark><name>silverstone</name><LineString><tessellate>1</tessellate><coordinates>-1.02336687,52.06840797,0 -1.02332256,52.06844376,0 -1.02327826,52.06847954,0 -1.02323397,52.06851532,0 -1.02318967,52.06855110,0 -1.02314538,52.06858689,0 -1.02310110,52.06862267,0 -1.02305681,52.06865846,0 -1.02301253,52.06869424,0 -1.02296825,52.06873003,0 -1.02292397,52.06876581,0 -1.02287969,52.06880160,0 -1.02283541,52.06883739,0 -1.02279114,52.06887317,0 -1.02274686,52.06890896,0 -1.02270259,52.06894475,0 -1.02265831,52.06898054,0 -1.02261404,52.06901633,0 -1.02256976,52.06905212,0 -1.02252549,52.06908791,0 -1.02248121,52.06912370,0 -1.02243694,52.06915950,0 -1.02239266,52.06919529,0 -1.02234839,52.06923108,0 -1.02230411,52.06926687,0 -1.02225984,52.06930267,0 -1.02221556,52.06933846,0 -1.02217129,52.06937425,0 -1.02212701,52.06941004,0 -1.02208274,52.06944584,0 -1.02203846,52.06948163,0 -1.02199419,52.06951742,0 -1.02194991,52.06955321,0 -1.02190563,52.06958901,0 -1.02186135,52.06962480,0 -1.02181707,52.06966059,0 -1.02177279,52.06969638,0 -1.02172851,52.06973217,0 -1.02168423,52.06976796,0 -1.02163995,52.06980375,0 -1.02159567,52.06983954,0 -1.02155138,52.06987533,0 -1.02150710,52.06991112,0 -1.02146281,52.06994690,0 -1.02141853,52.06998269,0 -1.02137424,52.07001848,0 -1.02132995,52.07005426,0 -1.02128566,52.07009005,0 -1.02124137,52.07012583,0 -1.02119708,52.07016161,0 -1.02115278,52.07019739,0 -1.02110849,52.07023317,0 -1.02106420,52.07026895,0 -1.02101991,52.07030474,0 -1.02097564,52.07034053,0 -1.02093138,52.07037632,0 -1.02088713,52.07041213,0 -1.02084291,52.07044794,0 -1.02079871,52.07048377,0 -1.02075454,52.07051961,0 -1.02071040,52.07055546,0 -1.02066629,52.07059133,0 -1.02062223,52.07062722,0 -1.02057820,52.07066313,0 -1.02053423,52.07069907,0 -1.02049030,52.07073503,0 -1.02044642,52.07077101,0 -1.02040260,52.07080702,0 -1.02035884,52.07084306,0 -1.02031514,52.07087913,0 -1.02027143,52.07091519,0 -1.02022762,52.07095118,0 -1.02018362,52.07098707,0 -1.02013934,52.07102279,0 -1.02009484,52.07105840,0 -1.02005071,52.07109430,0 -1.02000747,52.07113087,0 -1.01996281,52.07116664,0 -1.01991262,52.07119893,0 -1.01985565,52.07122625,0 -1.01979280,52.07124799,0 -1.01972534,52.07126446,0 -1.01965523,52.07127779,0 -1.01958435,52.07129009,0 -1.01951324,52.07130163,0 -1.01944186,52.07131196,0 -1.01937019,52.07132059,0 -1.01929820,52.07132706,0 -1.01922591,52.07133124,0 -1.01915335,52.07133343,0 -1.01908056,52.07133395,0 -1.01900758,52.07133311,0 -1.01893446,52.07133124,0 -1.01886125,52.07132866,0 -1.01878798,52.07132568,0 -1.01871469,52.07132262,0 -1.01864143,52.07131981,0 -1.01856823,52.07131742,0 -1.01849509,52.07131536,0 -1.01842201,52.07131349,0 -1.01834898,52.07131168,0 -1.01827600,52.07130981,0 -1.01820308,52.07130773,0 -1.01813021,52.07130533,0 -1.01805739,52.07130246,0 -1.01798462,52.07129899,0 -1.01791190,52.07129485,0 -1.01783920,52.07129013,0 -1.01776653,52.07128497,0 -1.01769386,52.07127952,0 -1.01762118,52.07127392,0 -1.01754847,52.07126830,0 -1.01747573,52.07126282,0 -1.01740294,52.07125761,0 -1.01733008,52.07125282,0 -1.01725715,52.07124860,0 -1.01718417,52.07124520,0 -1.01711119,52.07124292,0 -1.01703826,52.07124206,0 -1.01696541,52.07124290,0 -1.01689268,52.07124562,0 -1.01682006,52.07124994,0 -1.01674751,52.07125547,0 -1.01667503,52.07126183,0 -1.01660260,52.07126867,0 -1.01653036,52.07127614,0 -1.01645856,52.07128469,0 -1.01638747,52.07129480,0 -1.01631733,52.07130696,0 -1.01624838,52.07132156,0 -1.01618067,52.07133845,0 -1.01611415,52.07135730,0 -1.01604881,52.07137777,0 -1.01598462,52.07139949,0 -1.01592152,52.07142225,0 -1.01585941,52.07144594,0 -1.01579819,52.07147047,0 -1.01573778,52.07149573,0 -1.01567808,52.07152163,0 -1.01561898,52.07154808,0 -1.01556040,52.07157499,0 -1.01550224,52.07160224,0 -1.01544439,52.07162976,0 -1.01538680,52.07165747,0 -1.01532943,52.07168535,0 -1.01527226,52.07171338,0 -1.01521527,52.07174155,0 -1.01515843,52.07176984,0 -1.01510174,52.07179824,0 -1.01504516,52.07182672,0 -1.01498867,52.07185528,0 -1.01493226,52.07188390,0 -1.01487590,52.07191256,0 -1.01481957,52.07194124,0 -1.01476325,52.07196994,0 -1.01470691,52.07199863,0 -1.01465055,52.07202730,0 -1.01459412,52.07205593,0 -1.01453763,52.07208451,0 -1.01448103,52.07211303,0 -1.01442432,52.07214145,0 -1.01436747,52.07216979,0 -1.01431053,52.07219805,0 -1.01425356,52.07222629,0 -1.01419660,52.07225453,0 -1.01413973,52.07228282,0 -1.01408299,52.07231119,0 -1.01402645,52.07233968,0 -1.01397017,52.07236834,0 -1.01391419,52.07239720,0 -1.01385854,52.07242627,0 -1.01380275,52.07245521,0 -1.01374601,52.07248347,0 -1.01368750,52.07251046,0 -1.01362640,52.07253562,0 -1.01356207,52.07255822,0 -1.01349490,52.07257653,0 -1.01342569,52.07258845,0 -1.01335522,52.07259186,0 -1.01328434,52.07258474,0 -1.01321529,52.07256734,0 -1.01315186,52.07254251,0 -1.01309731,52.07251264,0 -1.01305274,52.07247817,0 -1.01301856,52.07243924,0 -1.01299232,52.07239715,0 -1.01296969,52.07235396,0 -1.01294767,52.07231100,0 -1.01292582,52.07226817,0 -1.01290404,52.07222531,0 -1.01288233,52.07218242,0 -1.01286069,52.07213949,0 -1.01283912,52.07209654,0 -1.01281761,52.07205356,0 -1.01279618,52.07201056,0 -1.01277481,52.07196754,0 -1.01275352,52.07192451,0 -1.01273229,52.07188146,0 -1.01271111,52.07183842,0 -1.01268985,52.07179540,0 -1.01266837,52.07175243,0 -1.01264652,52.07170954,0 -1.01262417,52.07166677,0 -1.01260039,52.07162436,0 -1.01257291,52.07158299,0 -1.01253927,52.07154340,0 -1.01249703,52.07150630,0 -1.01244433,52.07147305,0 -1.01238294,52.07144884,0 -1.01231594,52.07144001,0 -1.01224702,52.07144748,0 -1.01218051,52.07146641,0 -1.01211952,52.07149219,0 -1.01206323,52.07152194,0 -1.01201025,52.07155334,0 -1.01196138,52.07158626,0 -1.01191858,52.07162187,0 -1.01188175,52.07166018,0 -1.01184950,52.07170048,0 -1.01182046,52.07174207,0 -1.01179320,52.07178422,0 -1.01176653,52.07182633,0 -1.01174025,52.07186830,0 -1.01171453,52.07191027,0 -1.01168955,52.07195235,0 -1.01166549,52.07199465,0 -1.01164243,52.07203723,0 -1.01162040,52.07208007,0 -1.01159943,52.07212315,0 -1.01157952,52.07216645,0 -1.01156070,52.07220995,0 -1.01154298,52.07225364,0 -1.01152638,52.07229748,0 -1.01151093,52.07234147,0 -1.01149663,52.07238558,0 -1.01148350,52.07242979,0 -1.01147153,52.07247411,0 -1.01146070,52.07251853,0 -1.01145099,52.07256304,0 -1.01144240,52.07260764,0 -1.01143491,52.07265233,0 -1.01142850,52.07269709,0 -1.01142316,52.07274193,0 -1.01141889,52.07278685,0 -1.01141584,52.07283181,0 -1.01141474,52.07287676,0 -1.01141642,52.07292162,0 -1.01142166,52.07296643,0 -1.01143125,52.07301124,0 -1.01144698,52.07305546,0 -1.01147232,52.07309728,0 -1.01150980,52.07313521,0 -1.01155552,52.07317023,0 -1.01160408,52.07320393,0 -1.01165398,52.07323679,0 -1.01170506,52.07326892,0 -1.01175713,52.07330043,0 -1.01181004,52.07333142,0 -1.01186360,52.07336200,0 -1.01191766,52.07339228,0 -1.01197205,52.07342235,0 -1.01202658,52.07345234,0 -1.01208111,52.07348232,0 -1.01213557,52.07351235,0 -1.01218998,52.07354241,0 -1.01224435,52.07357250,0 -1.01229867,52.07360261,0 -1.01235297,52.07363274,0 -1.01240724,52.07366289,0 -1.01246151,52.07369304,0 -1.01251577,52.07372320,0 -1.01257003,52.07375335,0 -1.01262430,52.07378350,0 -1.01267858,52.07381364,0 -1.01273287,52.07384378,0 -1.01278716,52.07387391,0 -1.01284146,52.07390404,0 -1.01289577,52.07393417,0 -1.01295008,52.07396429,0 -1.01300440,52.07399440,0 -1.01305872,52.07402452,0 -1.01311305,52.07405463,0 -1.01316738,52.07408474,0 -1.01322171,52.07411484,0 -1.01327605,52.07414494,0 -1.01333039,52.07417504,0 -1.01338474,52.07420514,0 -1.01343909,52.07423524,0 -1.01349343,52.07426534,0 -1.01354779,52.07429543,0 -1.01360214,52.07432553,0 -1.01365649,52.07435562,0 -1.01371084,52.07438572,0 -1.01376519,52.07441581,0 -1.01381955,52.07444591,0 -1.01387390,52.07447600,0 -1.01392825,52.07450610,0 -1.01398260,52.07453619,0 -1.01403694,52.07456629,0 -1.01409129,52.07459639,0 -1.01414563,52.07462649,0 -1.01419997,52.07465660,0 -1.01425430,52.07468670,0 -1.01430863,52.07471681,0 -1.01436296,52.07474693,0 -1.01441728,52.07477704,0 -1.01447160,52.07480716,0 -1.01452591,52.07483728,0 -1.01458021,52.07486741,0 -1.01463451,52.07489754,0 -1.01468881,52.07492767,0 -1.01474310,52.07495781,0 -1.01479738,52.07498795,0 -1.01485166,52.07501809,0 -1.01490594,52.07504824,0 -1.01496022,52.07507838,0 -1.01501449,52.07510853,0 -1.01506876,52.07513868,0 -1.01512303,52.07516883,0 -1.01517730,52.07519898,0 -1.01523157,52.07522913,0 -1.01528584,52.07525928,0 -1.01534011,52.07528943,0 -1.01539439,52.07531958,0 -1.01544866,52.07534972,0 -1.01550294,52.07537987,0 -1.01555722,52.07541001,0 -1.01561150,52.07544015,0 -1.01566579,52.07547029,0 -1.01572008,52.07550043,0 -1.01577437,52.07553056,0 -1.01582868,52.07556069,0 -1.01588298,52.07559081,0 -1.01593730,52.07562093,0 -1.01599162,52.07565105,0 -1.01604595,52.07568116,0 -1.01610028,52.07571126,0 -1.01615463,52.07574136,0 -1.01620898,52.07577146,0 -1.01626334,52.07580154,0 -1.01631771,52.07583162,0 -1.01637210,52.07586170,0 -1.01642649,52.07589176,0 -1.01648089,52.07592182,0 -1.01653531,52.07595187,0 -1.01658974,52.07598191,0 -1.01664418,52.07601194,0 -1.01669864,52.07604196,0 -1.01675311,52.07607198,0 -1.01680759,52.07610198,0 -1.01686209,52.07613197,0 -1.01691661,52.07616195,0 -1.01697115,52.07619192,0 -1.01702570,52.07622188,0 -1.01708027,52.07625182,0 -1.01713486,52.07628175,0 -1.01718947,52.07631167,0 -1.01724410,52.07634157,0 -1.01729875,52.07637146,0 -1.01735342,52.07640134,0 -1.01740811,52.07643120,0 -1.01746283,52.07646104,0 -1.01751757,52.07649087,0 -1.01757234,52.07652068,0 -1.01762712,52.07655048,0 -1.01768191,52.07658027,0 -1.01773668,52.07661008,0 -1.01779144,52.07663989,0 -1.01784616,52.07666974,0 -1.01790083,52.07669961,0 -1.01795544,52.07672953,0 -1.01800997,52.07675950,0 -1.01806442,52.07678953,0 -1.01811879,52.07681961,0 -1.01817316,52.07684970,0 -1.01822758,52.07687974,0 -1.01828214,52.07690969,0 -1.01833690,52.07693950,0 -1.01839192,52.07696913,0 -1.01844728,52.07699852,0 -1.01850304,52.07702763,0 -1.01855927,52.07705641,0 -1.01861648,52.07708437,0 -1.01867633,52.07710973,0 -1.01874045,52.07713077,0 -1.01880818,52.07714789,0 -1.01887756,52.07716268,0 -1.01894748,52.07717597,0 -1.01901815,52.07718733,0 -1.01908980,52.07719634,0 -1.01916219,52.07720301,0 -1.01923500,52.07720742,0 -1.01930799,52.07720944,0 -1.01938098,52.07720886,0 -1.01945379,52.07720548,0 -1.01952623,52.07719909,0 -1.01959790,52.07718944,0 -1.01966786,52.07717615,0 -1.01973506,52.07715883,0 -1.01979846,52.07713710,0 -1.01985704,52.07711063,0 -1.01990998,52.07707973,0 -1.01995658,52.07704506,0 -1.01999612,52.07700726,0 -1.02002791,52.07696699,0 -1.02005157,52.07692487,0 -1.02006841,52.07688139,0 -1.02008021,52.07683698,0 -1.02008875,52.07679207,0 -1.02009578,52.07674710,0 -1.02010223,52.07670225,0 -1.02010832,52.07665750,0 -1.02011421,52.07661282,0 -1.02012009,52.07656817,0 -1.02012614,52.07652353,0 -1.02013255,52.07647887,0 -1.02013948,52.07643416,0 -1.02014713,52.07638937,0 -1.02015567,52.07634446,0 -1.02016550,52.07629953,0 -1.02017731,52.07625484,0 -1.02019184,52.07621067,0 -1.02020980,52.07616729,0 -1.02023192,52.07612498,0 -1.02025893,52.07608402,0 -1.02029155,52.07604469,0 -1.02033052,52.07600727,0 -1.02037654,52.07597202,0 -1.02042938,52.07593925,0 -1.02048627,52.07590926,0 -1.02054444,52.07588236,0 -1.02060437,52.07585878,0 -1.02066818,52.07583870,0 -1.02073656,52.07582240,0 -1.02080807,52.07581026,0 -1.02088110,52.07580266,0 -1.02095405,52.07580000,0 -1.02102564,52.07580260,0 -1.02109612,52.07581041,0 -1.02116607,52.07582327,0 -1.02123491,52.07584058,0 -1.02130105,52.07586140,0 -1.02136327,52.07588503,0 -1.02142133,52.07591141,0 -1.02147514,52.07594059,0 -1.02152461,52.07597260,0 -1.02156964,52.07600746,0 -1.02160997,52.07604492,0 -1.02164527,52.07608457,0 -1.02167523,52.07612603,0 -1.02169951,52.07616891,0 -1.02171779,52.07621281,0 -1.02172974,52.07625735,0 -1.02173504,52.07630212,0 -1.02173336,52.07634675,0 -1.02172442,52.07639084,0 -1.02170876,52.07643425,0 -1.02168759,52.07647700,0 -1.02166212,52.07651913,0 -1.02163358,52.07656068,0 -1.02160314,52.07660168,0 -1.02157143,52.07664224,0 -1.02153888,52.07668251,0 -1.02150589,52.07672263,0 -1.02147287,52.07676274,0 -1.02144006,52.07680292,0 -1.02140745,52.07684317,0 -1.02137503,52.07688348,0 -1.02134276,52.07692383,0 -1.02131064,52.07696424,0 -1.02127864,52.07700468,0 -1.02124674,52.07704514,0 -1.02121492,52.07708563,0 -1.02118317,52.07712613,0 -1.02115145,52.07716664,0 -1.02111974,52.07720714,0 -1.02108802,52.07724764,0 -1.02105626,52.07728813,0 -1.02102443,52.07732861,0 -1.02099251,52.07736906,0 -1.02096047,52.07740948,0 -1.02092828,52.07744988,0 -1.02089591,52.07749023,0 -1.02086331,52.07753053,0 -1.02083027,52.07757068,0 -1.02079652,52.07761057,0 -1.02076181,52.07765009,0 -1.02072590,52.07768915,0 -1.02068853,52.07772762,0 -1.02064945,52.07776540,0 -1.02060841,52.07780239,0 -1.02056515,52.07783847,0 -1.02051949,52.07787357,0 -1.02047176,52.07790779,0 -1.02042253,52.07794132,0 -1.02037237,52.07797436,0 -1.02032185,52.07800712,0 -1.02027140,52.07803972,0 -1.02022080,52.07807207,0 -1.02016969,52.07810401,0 -1.02011768,52.07813536,0 -1.02006444,52.07816599,0 -1.02001012,52.07819602,0 -1.01995526,52.07822581,0 -1.01990041,52.07825572,0 -1.01984614,52.07828611,0 -1.01979283,52.07831721,0 -1.01973971,52.07834833,0 -1.01968547,52.07837836,0 -1.01962878,52.07840618,0 -1.01956836,52.07843069,0 -1.01950423,52.07845187,0 -1.01943811,52.07847112,0 -1.01937152,52.07848965,0 -1.01930456,52.07850759,0 -1.01923698,52.07852475,0 -1.01916870,52.07854098,0 -1.01909976,52.07855617,0 -1.01903022,52.07857019,0 -1.01896013,52.07858290,0 -1.01888953,52.07859426,0 -1.01881848,52.07860439,0 -1.01874704,52.07861343,0 -1.01867527,52.07862154,0 -1.01860320,52.07862886,0 -1.01853092,52.07863554,0 -1.01845846,52.07864171,0 -1.01838588,52.07864754,0 -1.01831324,52.07865315,0 -1.01824059,52.07865869,0 -1.01816793,52.07866416,0 -1.01809527,52.07866958,0 -1.01802260,52.07867494,0 -1.01794992,52.07868024,0 -1.01787724,52.07868549,0 -1.01780455,52.07869069,0 -1.01773186,52.07869584,0 -1.01765916,52.07870094,0 -1.01758646,52.07870600,0 -1.01751375,52.07871100,0 -1.01744104,52.07871597,0 -1.01736832,52.07872088,0 -1.01729560,52.07872576,0 -1.01722287,52.07873060,0 -1.01715014,52.07873539,0 -1.01707740,52.07874015,0 -1.01700465,52.07874488,0 -1.01693191,52.07874957,0 -1.01685915,52.07875422,0 -1.01678640,52.07875885,0 -1.01671363,52.07876344,0 -1.01664087,52.07876800,0 -1.01656810,52.07877254,0 -1.01649532,52.07877705,0 -1.01642254,52.07878153,0 -1.01634975,52.07878600,0 -1.01627697,52.07879043,0 -1.01620417,52.07879485,0 -1.01613137,52.07879925,0 -1.01605857,52.07880364,0 -1.01598577,52.07880800,0 -1.01591296,52.07881235,0 -1.01584014,52.07881669,0 -1.01576733,52.07882101,0 -1.01569450,52.07882533,0 -1.01562168,52.07882963,0 -1.01554885,52.07883393,0 -1.01547602,52.07883822,0 -1.01540318,52.07884249,0 -1.01533034,52.07884674,0 -1.01525749,52.07885097,0 -1.01518464,52.07885518,0 -1.01511179,52.07885936,0 -1.01503893,52.07886350,0 -1.01496607,52.07886761,0 -1.01489320,52.07887167,0 -1.01482033,52.07887569,0 -1.01474745,52.07887967,0 -1.01467457,52.07888359,0 -1.01460169,52.07888745,0 -1.01452880,52.07889126,0 -1.01445590,52.07889500,0 -1.01438300,52.07889867,0 -1.01431009,52.07890227,0 -1.01423718,52.07890580,0 -1.01416426,52.07890926,0 -1.01409134,52.07891266,0 -1.01401841,52.07891600,0 -1.01394548,52.07891932,0 -1.01387255,52.07892260,0 -1.01379960,52.07892588,0 -1.01372666,52.07892915,0 -1.01365371,52.07893244,0 -1.01358075,52.07893575,0 -1.01350779,52.07893910,0 -1.01343483,52.07894249,0 -1.01336186,52.07894595,0 -1.01328889,52.07894947,0 -1.01321592,52.07895308,0 -1.01314294,52.07895678,0 -1.01306996,52.07896060,0 -1.01299697,52.07896453,0 -1.01292398,52.07896859,0 -1.01285100,52.07897267,0 -1.01277808,52.07897612,0 -1.01270528,52.07897822,0 -1.01263266,52.07897821,0 -1.01256028,52.07897534,0 -1.01248820,52.07896929,0 -1.01241649,52.07896061,0 -1.01234518,52.07894996,0 -1.01227435,52.07893801,0 -1.01220404,52.07892535,0 -1.01213429,52.07891203,0 -1.01206513,52.07889787,0 -1.01199659,52.07888270,0 -1.01192868,52.07886632,0 -1.01186148,52.07884860,0 -1.01179519,52.07882948,0 -1.01173002,52.07880893,0 -1.01166620,52.07878693,0 -1.01160396,52.07876343,0 -1.01154342,52.07873842,0 -1.01148466,52.07871187,0 -1.01142774,52.07868374,0 -1.01137273,52.07865401,0 -1.01131995,52.07862257,0 -1.01127147,52.07858887,0 -1.01122998,52.07855214,0 -1.01119547,52.07851266,0 -1.01116468,52.07847187,0 -1.01113559,52.07843065,0 -1.01110793,52.07838908,0 -1.01108157,52.07834720,0 -1.01105634,52.07830504,0 -1.01103209,52.07826266,0 -1.01100867,52.07822008,0 -1.01098593,52.07817735,0 -1.01096371,52.07813450,0 -1.01094186,52.07809158,0 -1.01092027,52.07804860,0 -1.01089895,52.07800557,0 -1.01087790,52.07796250,0 -1.01085712,52.07791937,0 -1.01083664,52.07787620,0 -1.01081645,52.07783297,0 -1.01079656,52.07778970,0 -1.01077699,52.07774637,0 -1.01075774,52.07770300,0 -1.01073881,52.07765957,0 -1.01072023,52.07761609,0 -1.01070198,52.07757255,0 -1.01068410,52.07752896,0 -1.01066657,52.07748532,0 -1.01064942,52.07744163,0 -1.01063264,52.07739788,0 -1.01061626,52.07735407,0 -1.01060027,52.07731021,0 -1.01058468,52.07726630,0 -1.01056950,52.07722233,0 -1.01055472,52.07717831,0 -1.01054036,52.07713423,0 -1.01052640,52.07709011,0 -1.01051286,52.07704593,0 -1.01049972,52.07700170,0 -1.01048700,52.07695743,0 -1.01047469,52.07691311,0 -1.01046279,52.07686875,0 -1.01045131,52.07682434,0 -1.01044025,52.07677989,0 -1.01042961,52.07673541,0 -1.01041940,52.07669088,0 -1.01040961,52.07664632,0 -1.01040025,52.07660172,0 -1.01039132,52.07655709,0 -1.01038282,52.07651244,0 -1.01037476,52.07646775,0 -1.01036713,52.07642304,0 -1.01035991,52.07637830,0 -1.01035307,52.07633354,0 -1.01034660,52.07628876,0 -1.01034048,52.07624396,0 -1.01033468,52.07619914,0 -1.01032919,52.07615430,0 -1.01032398,52.07610945,0 -1.01031903,52.07606459,0 -1.01031433,52.07601972,0 -1.01030984,52.07597483,0 -1.01030556,52.07592994,0 -1.01030145,52.07588505,0 -1.01029751,52.07584015,0 -1.01029370,52.07579525,0 -1.01029002,52.07575035,0 -1.01028643,52.07570544,0 -1.01028291,52.07566055,0 -1.01027945,52.07561565,0 -1.01027605,52.07557076,0 -1.01027269,52.07552587,0 -1.01026938,52.07548099,0 -1.01026611,52.07543610,0 -1.01026287,52.07539121,0 -1.01025967,52.07534632,0 -1.01025650,52.07530142,0 -1.01025335,52.07525652,0 -1.01025022,52.07521161,0 -1.01024711,52.07516670,0 -1.01024402,52.07512178,0 -1.01024093,52.07507684,0 -1.01023785,52.07503190,0 -1.01023477,52.07498695,0 -1.01023169,52.07494198,0 -1.01022861,52.07489699,0 -1.01022551,52.07485199,0 -1.01022239,52.07480698,0 -1.01021907,52.07476197,0 -1.01021530,52.07471699,0 -1.01021080,52.07467208,0 -1.01020530,52.07462726,0 -1.01019852,52.07458257,0 -1.01019021,52.07453804,0 -1.01018009,52.07449369,0 -1.01016788,52.07444957,0 -1.01015333,52.07440570,0 -1.01013635,52.07436210,0 -1.01011705,52.07431881,0 -1.01009556,52.07427585,0 -1.01007201,52.07423324,0 -1.01004654,52.07419101,0 -1.01001925,52.07414918,0 -1.00999030,52.07410778,0 -1.00995979,52.07406683,0 -1.00992786,52.07402636,0 -1.00989457,52.07398639,0 -1.00985982,52.07394696,0 -1.00982351,52.07390808,0 -1.00978553,52.07386979,0 -1.00974581,52.07383211,0 -1.00970503,52.07379479,0 -1.00966477,52.07375728,0 -1.00962664,52.07371902,0 -1.00959226,52.07367945,0 -1.00956299,52.07363817,0 -1.00953937,52.07359546,0 -1.00952174,52.07355168,0 -1.00951045,52.07350723,0 -1.00950586,52.07346249,0 -1.00950793,52.07341777,0 -1.00951595,52.07337324,0 -1.00952911,52.07332906,0 -1.00954662,52.07328537,0 -1.00956765,52.07324229,0 -1.00959124,52.07319971,0 -1.00961638,52.07315745,0 -1.00964204,52.07311531,0 -1.00966722,52.07307311,0 -1.00969122,52.07303070,0 -1.00971443,52.07298814,0 -1.00973749,52.07294554,0 -1.00976099,52.07290298,0 -1.00978552,52.07286055,0 -1.00981095,52.07281825,0 -1.00983676,52.07277602,0 -1.00986240,52.07273381,0 -1.00988731,52.07269155,0 -1.00991101,52.07264919,0 -1.00993333,52.07260665,0 -1.00995424,52.07256384,0 -1.00997372,52.07252070,0 -1.00999171,52.07247713,0 -1.01000807,52.07243315,0 -1.01002250,52.07238882,0 -1.01003469,52.07234423,0 -1.01004434,52.07229945,0 -1.01005115,52.07225458,0 -1.01005482,52.07220969,0 -1.01005503,52.07216486,0 -1.01005150,52.07212018,0 -1.01004392,52.07207572,0 -1.01003213,52.07203159,0 -1.01001625,52.07198789,0 -1.00999642,52.07194472,0 -1.00997279,52.07190222,0 -1.00994549,52.07186049,0 -1.00991468,52.07181964,0 -1.00988050,52.07177978,0 -1.00984309,52.07174104,0 -1.00980259,52.07170351,0 -1.00975928,52.07166724,0 -1.00971384,52.07163193,0 -1.00966706,52.07159727,0 -1.00961968,52.07156292,0 -1.00957250,52.07152856,0 -1.00952628,52.07149384,0 -1.00948180,52.07145844,0 -1.00943981,52.07142203,0 -1.00940111,52.07138428,0 -1.00936638,52.07134491,0 -1.00933593,52.07130404,0 -1.00930991,52.07126190,0 -1.00928847,52.07121873,0 -1.00927176,52.07117476,0 -1.00925994,52.07113024,0 -1.00925314,52.07108540,0 -1.00925153,52.07104047,0 -1.00925526,52.07099571,0 -1.00926445,52.07095133,0 -1.00927901,52.07090754,0 -1.00929870,52.07086448,0 -1.00932328,52.07082232,0 -1.00935250,52.07078120,0 -1.00938612,52.07074130,0 -1.00942391,52.07070276,0 -1.00946563,52.07066575,0 -1.00951102,52.07063042,0 -1.00955984,52.07059693,0 -1.00961172,52.07056524,0 -1.00966613,52.07053516,0 -1.00972255,52.07050647,0 -1.00978045,52.07047896,0 -1.00983934,52.07045243,0 -1.00989899,52.07042672,0 -1.00995937,52.07040173,0 -1.01002043,52.07037733,0 -1.01008214,52.07035341,0 -1.01014443,52.07032991,0 -1.01020727,52.07030683,0 -1.01027059,52.07028417,0 -1.01033434,52.07026196,0 -1.01039845,52.07024019,0 -1.01046271,52.07021870,0 -1.01052679,52.07019714,0 -1.01059033,52.07017515,0 -1.01065296,52.07015239,0 -1.01071432,52.07012847,0 -1.01077399,52.07010291,0 -1.01083174,52.07007544,0 -1.01088954,52.07004765,0 -1.01094689,52.07001961,0 -1.01100104,52.06998960,0 -1.01105179,52.06995760,0 -1.01109924,52.06992377,0 -1.01114349,52.06988829,0 -1.01118470,52.06985134,0 -1.01122337,52.06981320,0 -1.01126013,52.06977420,0 -1.01129561,52.06973467,0 -1.01133043,52.06969494,0 -1.01136508,52.06965525,0 -1.01139968,52.06961563,0 -1.01143427,52.06957605,0 -1.01146886,52.06953651,0 -1.01150350,52.06949697,0 -1.01153820,52.06945744,0 -1.01157294,52.06941790,0 -1.01160772,52.06937837,0 -1.01164252,52.06933883,0 -1.01167733,52.06929929,0 -1.01171214,52.06925974,0 -1.01174695,52.06922019,0 -1.01178174,52.06918063,0 -1.01181650,52.06914106,0 -1.01185124,52.06910148,0 -1.01188594,52.06906189,0 -1.01192061,52.06902229,0 -1.01195526,52.06898269,0 -1.01198988,52.06894307,0 -1.01202448,52.06890345,0 -1.01205905,52.06886383,0 -1.01209360,52.06882419,0 -1.01212814,52.06878455,0 -1.01216265,52.06874491,0 -1.01219715,52.06870526,0 -1.01223163,52.06866560,0 -1.01226610,52.06862595,0 -1.01230056,52.06858628,0 -1.01233501,52.06854662,0 -1.01236945,52.06850695,0 -1.01240388,52.06846728,0 -1.01243830,52.06842761,0 -1.01247272,52.06838794,0 -1.01250714,52.06834827,0 -1.01254155,52.06830859,0 -1.01257597,52.06826892,0 -1.01261039,52.06822925,0 -1.01264481,52.06818957,0 -1.01267923,52.06814990,0 -1.01271366,52.06811024,0 -1.01274810,52.06807057,0 -1.01278255,52.06803091,0 -1.01281701,52.06799125,0 -1.01285148,52.06795160,0 -1.01288596,52.06791195,0 -1.01292046,52.06787230,0 -1.01295497,52.06783266,0 -1.01298951,52.06779303,0 -1.01302406,52.06775340,0 -1.01305863,52.06771378,0 -1.01309323,52.06767416,0 -1.01312785,52.06763455,0 -1.01316249,52.06759495,0 -1.01319715,52.06755536,0 -1.01323182,52.06751577,0 -1.01326651,52.06747619,0 -1.01330122,52.06743661,0 -1.01333594,52.06739703,0 -1.01337068,52.06735746,0 -1.01340542,52.06731789,0 -1.01344017,52.06727833,0 -1.01347494,52.06723877,0 -1.01350970,52.06719921,0 -1.01354448,52.06715965,0 -1.01357925,52.06712009,0 -1.01361403,52.06708054,0 -1.01364881,52.06704098,0 -1.01368359,52.06700142,0 -1.01371836,52.06696187,0 -1.01375314,52.06692231,0 -1.01378790,52.06688275,0 -1.01382266,52.06684319,0 -1.01385742,52.06680362,0 -1.01389216,52.06676405,0 -1.01392690,52.06672448,0 -1.01396162,52.06668491,0 -1.01399633,52.06664533,0 -1.01403102,52.06660575,0 -1.01406570,52.06656616,0 -1.01410036,52.06652656,0 -1.01413500,52.06648696,0 -1.01416962,52.06644736,0 -1.01420421,52.06640774,0 -1.01423879,52.06636812,0 -1.01427334,52.06632849,0 -1.01430786,52.06628885,0 -1.01434236,52.06624921,0 -1.01437682,52.06620955,0 -1.01441125,52.06616989,0 -1.01444565,52.06613021,0 -1.01448000,52.06609051,0 -1.01451430,52.06605081,0 -1.01454856,52.06601108,0 -1.01458275,52.06597134,0 -1.01461689,52.06593157,0 -1.01465096,52.06589179,0 -1.01468495,52.06585198,0 -1.01471888,52.06581214,0 -1.01475272,52.06577228,0 -1.01478648,52.06573239,0 -1.01482015,52.06569248,0 -1.01485373,52.06565253,0 -1.01488720,52.06561254,0 -1.01492058,52.06557253,0 -1.01495385,52.06553247,0 -1.01498701,52.06549238,0 -1.01502019,52.06545230,0 -1.01505362,52.06541231,0 -1.01508755,52.06537249,0 -1.01512222,52.06533294,0 -1.01515784,52.06529371,0 -1.01519433,52.06525479,0 -1.01523144,52.06521607,0 -1.01526891,52.06517747,0 -1.01530651,52.06513890,0 -1.01534407,52.06510031,0 -1.01538166,52.06506171,0 -1.01541930,52.06502313,0 -1.01545706,52.06498459,0 -1.01549499,52.06494611,0 -1.01553314,52.06490772,0 -1.01557155,52.06486944,0 -1.01561029,52.06483130,0 -1.01564939,52.06479331,0 -1.01568890,52.06475549,0 -1.01572878,52.06471783,0 -1.01576900,52.06468031,0 -1.01580951,52.06464291,0 -1.01585027,52.06460562,0 -1.01589126,52.06456842,0 -1.01593242,52.06453128,0 -1.01597372,52.06449420,0 -1.01601513,52.06445716,0 -1.01605659,52.06442013,0 -1.01609808,52.06438311,0 -1.01613955,52.06434607,0 -1.01618097,52.06430899,0 -1.01622229,52.06427187,0 -1.01626349,52.06423467,0 -1.01630451,52.06419739,0 -1.01634532,52.06416001,0 -1.01638588,52.06412251,0 -1.01642618,52.06408488,0 -1.01646641,52.06404723,0 -1.01650690,52.06400972,0 -1.01654796,52.06397250,0 -1.01658992,52.06393575,0 -1.01663310,52.06389963,0 -1.01667781,52.06386429,0 -1.01672439,52.06382990,0 -1.01677314,52.06379663,0 -1.01682438,52.06376463,0 -1.01687828,52.06373417,0 -1.01693483,52.06370558,0 -1.01699404,52.06367922,0 -1.01705593,52.06365541,0 -1.01712047,52.06363448,0 -1.01718732,52.06361633,0 -1.01725599,52.06360070,0 -1.01732598,52.06358731,0 -1.01739679,52.06357589,0 -1.01746812,52.06356628,0 -1.01753992,52.06355853,0 -1.01761217,52.06355269,0 -1.01768488,52.06354884,0 -1.01775800,52.06354702,0 -1.01783132,52.06354742,0 -1.01790444,52.06355029,0 -1.01797695,52.06355590,0 -1.01804843,52.06356454,0 -1.01811856,52.06357634,0 -1.01818716,52.06359116,0 -1.01825409,52.06360882,0 -1.01831921,52.06362910,0 -1.01838239,52.06365182,0 -1.01844348,52.06367678,0 -1.01850236,52.06370378,0 -1.01855887,52.06373262,0 -1.01861289,52.06376312,0 -1.01866425,52.06379510,0 -1.01871270,52.06382855,0 -1.01875798,52.06386348,0 -1.01879982,52.06389994,0 -1.01883792,52.06393793,0 -1.01887237,52.06397738,0 -1.01890406,52.06401791,0 -1.01893405,52.06405909,0 -1.01896339,52.06410050,0 -1.01899305,52.06414176,0 -1.01902335,52.06418274,0 -1.01905429,52.06422347,0 -1.01908582,52.06426396,0 -1.01911795,52.06430424,0 -1.01915065,52.06434433,0 -1.01918389,52.06438425,0 -1.01921767,52.06442403,0 -1.01925196,52.06446369,0 -1.01928674,52.06450325,0 -1.01932203,52.06454268,0 -1.01935791,52.06458194,0 -1.01939442,52.06462097,0 -1.01943162,52.06465971,0 -1.01946958,52.06469811,0 -1.01950830,52.06473618,0 -1.01954777,52.06477392,0 -1.01958797,52.06481137,0 -1.01962889,52.06484854,0 -1.01967052,52.06488545,0 -1.01971283,52.06492210,0 -1.01975580,52.06495848,0 -1.01979941,52.06499460,0 -1.01984363,52.06503044,0 -1.01988845,52.06506601,0 -1.01993383,52.06510131,0 -1.01997977,52.06513634,0 -1.02002623,52.06517109,0 -1.02007319,52.06520556,0 -1.02012061,52.06523978,0 -1.02016846,52.06527376,0 -1.02021670,52.06530753,0 -1.02026530,52.06534110,0 -1.02031422,52.06537450,0 -1.02036342,52.06540775,0 -1.02041286,52.06544086,0 -1.02046251,52.06547386,0 -1.02051234,52.06550677,0 -1.02056230,52.06553960,0 -1.02061237,52.06557239,0 -1.02066249,52.06560514,0 -1.02071264,52.06563788,0 -1.02076278,52.06567063,0 -1.02081288,52.06570342,0 -1.02086289,52.06573625,0 -1.02091279,52.06576915,0 -1.02096253,52.06580214,0 -1.02101209,52.06583524,0 -1.02106146,52.06586843,0 -1.02111062,52.06590174,0 -1.02115956,52.06593517,0 -1.02120826,52.06596871,0 -1.02125670,52.06600239,0 -1.02130487,52.06603619,0 -1.02135275,52.06607013,0 -1.02140033,52.06610421,0 -1.02144762,52.06613844,0 -1.02149467,52.06617279,0 -1.02154153,52.06620726,0 -1.02158822,52.06624185,0 -1.02163480,52.06627653,0 -1.02168131,52.06631131,0 -1.02172780,52.06634617,0 -1.02177431,52.06638111,0 -1.02182088,52.06641610,0 -1.02186796,52.06645078,0 -1.02191655,52.06648429,0 -1.02196856,52.06651460,0 -1.02202909,52.06653542,0 -1.02209887,52.06654440,0 -1.02217382,52.06654316,0 -1.02224805,52.06653460,0 -1.02231716,52.06652063,0 -1.02238046,52.06650085,0 -1.02243840,52.06647523,0 -1.02249276,52.06644554,0 -1.02254553,52.06641382,0 -1.02259872,52.06638209,0 -1.02265428,52.06635237,0 -1.02271328,52.06632588,0 -1.02277557,52.06630274,0 -1.02284087,52.06628298,0 -1.02290892,52.06626665,0 -1.02297934,52.06625424,0 -1.02305125,52.06624805,0 -1.02312358,52.06625076,0 -1.02319447,52.06626240,0 -1.02326148,52.06628094,0 -1.02332306,52.06630460,0 -1.02337996,52.06633226,0 -1.02343318,52.06636293,0 -1.02348377,52.06639562,0 -1.02353275,52.06642934,0 -1.02358070,52.06646350,0 -1.02362759,52.06649811,0 -1.02367338,52.06653318,0 -1.02371801,52.06656873,0 -1.02376142,52.06660479,0 -1.02380356,52.06664139,0 -1.02384438,52.06667854,0 -1.02388381,52.06671628,0 -1.02392181,52.06675462,0 -1.02395833,52.06679357,0 -1.02399332,52.06683309,0 -1.02402675,52.06687316,0 -1.02405860,52.06691374,0 -1.02408883,52.06695477,0 -1.02411740,52.06699624,0 -1.02414428,52.06703809,0 -1.02416944,52.06708029,0 -1.02419285,52.06712281,0 -1.02421449,52.06716561,0 -1.02423449,52.06720869,0 -1.02425300,52.06725206,0 -1.02427016,52.06729571,0 -1.02428612,52.06733966,0 -1.02430061,52.06738389,0 -1.02431235,52.06742837,0 -1.02431996,52.06747307,0 -1.02432203,52.06751794,0 -1.02431712,52.06756284,0 -1.02430334,52.06760685,0 -1.02427867,52.06764870,0 -1.02424389,52.06768806,0 -1.02420345,52.06772581,0 -1.02416127,52.06776276,0 -1.02411831,52.06779921,0 -1.02407477,52.06783530,0 -1.02403087,52.06787118,0 -1.02398682,52.06790699,0 -1.02394270,52.06794279,0 -1.02389852,52.06797859,0 -1.02385430,52.06801438,0 -1.02381004,52.06805016,0 -1.02376575,52.06808595,0 -1.02372144,52.06812173,0 -1.02367712,52.06815751,0 -1.02363278,52.06819329,0 -1.02358845,52.06822907,0 -1.02354412,52.06826485,0 -1.02349980,52.06830063,0 -1.02345548,52.06833641,0 -1.02341117,52.06837219,0</coordinates></LineString></Placemark></Document></kml>
