<?xml version="1.0" encoding="UTF-8"?>
<kml xmlns="http://www.opengis.net/kml/2.2" xmlns:gx="http://www.google.com/kml/ext/2.2" xmlns:kml="http://www.opengis.net/kml/2.2" xmlns:atom="http://www.w3.org/2005/Atom">
<Document id="document">
	<name>Spa_Circuito</name>
	<gx:CascadingStyle kml:id="__managed_style_0E4FA76F9940FE492214_highlight">
		<styleUrl>https://earth.google.com/balloon_components/base/1.1.0.0/card_template.kml#main</styleUrl>
		<Style>
			<IconStyle>
				<scale>1.2</scale>
				<Icon>
					<href>https://earth.google.com/earth/document/icon?color=1976d2&amp;id=2000&amp;scale=4</href>
				</Icon>
				<hotSpot x="64" y="128" xunits="pixels" yunits="insetPixels"/>
			</IconStyle>
			<LabelStyle>
			</LabelStyle>
			<LineStyle>
				<color>ff2dc0fb</color>
				<width>4.8</width>
			</LineStyle>
			<PolyStyle>
				<color>40ffffff</color>
			</PolyStyle>
			<BalloonStyle>
			</BalloonStyle>
		</Style>
	</gx:CascadingStyle>
	<gx:CascadingStyle kml:id="__managed_style_0E4FA76F9940FE492214_normal">
		<styleUrl>https://earth.google.com/balloon_components/base/1.1.0.0/card_template.kml#main</styleUrl>
		<Style>
			<IconStyle>
				<Icon>
					<href>https://earth.google.com/earth/document/icon?color=1976d2&amp;id=2000&amp;scale=4</href>
				</Icon>
				<hotSpot x="64" y="128" xunits="pixels" yunits="insetPixels"/>
			</IconStyle>
			<LabelStyle>
			</LabelStyle>
			<LineStyle>
				<color>ff2dc0fb</color>
				<width>3.2</width>
			</LineStyle>
			<PolyStyle>
				<color>40ffffff</color>
			</PolyStyle>
			<BalloonStyle>
			</BalloonStyle>
		</Style>
	</gx:CascadingStyle>
	<StyleMap id="__managed_style_0E4FA76F9940FE492214">
		<Pair>
			<key>normal</key>
			<styleUrl>#__managed_style_0E4FA76F9940FE492214_normal</styleUrl>
		</Pair>
		<Pair>
			<key>highlight</key>
			<styleUrl>#__managed_style_0E4FA76F9940FE492214_highlight</styleUrl>
		</Pair>
	</StyleMap>
	<Placemark id="03AEAAABFD40FE4921E1">
		<name>Bode Interior</name>
		<LookAt>
			<longitude>5.973554009648758</longitude>
			<latitude>50.42877619300247</latitude>
			<altitude>439.1897755844348</altitude>
			<heading>-51.04427075113851</heading>
			<tilt>0.2184470422451088</tilt>
			<gx:fovy>35</gx:fovy>
			<range>204.4439717958813</range>
			<altitudeMode>absolute</altitudeMode>
		</LookAt>
		<styleUrl>#__managed_style_0E4FA76F9940FE492214</styleUrl>
		<Polygon>
			<outerBoundaryIs>
				<LinearRing>
					<coordinates>
						5.972849621006584,50.42858195473185,0 5.972540300811366,50.42846324862256,0 5.972355780618921,50.4283433091828,0 5.97229017631649,50.42825021708685,0 5.972256584272683,50.42812530936231,0 5.972317452714211,50.42793278370701,0 5.972466497335756,50.42781082495403,0 5.972636320834559,50.42774823617573,0 5.972763794798643,50.42772083965814,0 5.972919890934381,50.42771264017781,0 5.97307088213864,50.42773198203161,0 5.973215528674909,50.42777983135695,0 5.973684971455178,50.42798973780524,0 5.974234771912778,50.42823277238207,0 5.974562590138344,50.42837106495515,0 5.976101656301138,50.42906084058414,0 5.976599573902288,50.42927924654054,0 5.976737346532732,50.42933852420199,0 5.976832384997031,50.42941150361549,0 5.976902995907809,50.42953999638553,0 5.976950842269202,50.42965331108623,0 5.976935602868901,50.42974635747152,0 5.976899511006561,50.42988327322269,0 5.976775262458592,50.43020931775161,0 5.976714841734587,50.43039542684105,0 5.97666229380464,50.4305469940286,0 5.976633565444809,50.43064499795248,0 5.976640178112702,50.43074322585127,0 5.976681251926652,50.43086138222273,0 5.976752880972307,50.43096396834387,0 5.976860186441018,50.43104857785804,0 5.977025034860432,50.43112056016201,0 5.977200333969302,50.43117411229223,0 5.97734567336574,50.43126245134864,0 5.977429619363333,50.43137645364991,0 5.977459962433329,50.43147644981739,0 5.977437511427654,50.43158630536521,0 5.977370930894567,50.43174370669181,0 5.977278074724255,50.43196185185954,0 5.976999289152847,50.43259072325954,0 5.976381329990426,50.4339625241746,0 5.975328595815112,50.4363157605837,0 5.974579134162394,50.43799277019337,0 5.974494305484173,50.43813847492509,0 5.974382683120581,50.43831986496863,0 5.97425730728085,50.43848905680301,0 5.974112106899172,50.43867040499927,0 5.973706525851165,50.43910353555086,0 5.973156344528805,50.43965604432916,0 5.972343887095355,50.44048577762812,0 5.972137867832005,50.44070872791379,0 5.972055816081811,50.44082594769933,0 5.971980437334688,50.4409668543289,0 5.971911998468773,50.44122389338828,0 5.971873708811868,50.44136443822904,0 5.971822437497154,50.44152015901797,0 5.971736329292607,50.44167323273157,0 5.97162880806009,50.4418068985614,0 5.971557980093538,50.44189744281623,0 5.971478001381505,50.44197098664372,0 5.971373255399357,50.44204485162459,0 5.971245742974418,50.44212184519699,0 5.971136506754029,50.44217907113879,0 5.970909668517654,50.44227033111606,0 5.970584669455492,50.44239834396865,0 5.970450490718171,50.44246010698033,0 5.970336454068208,50.44252773789801,0 5.970245953528246,50.44258446354874,0 5.970115853285327,50.44267857886894,0 5.969831266501988,50.44290299387123,0 5.969275153570743,50.44332344385216,0 5.968953703853979,50.44356013614794,0 5.968388831050786,50.44398041809999,0 5.967847368824231,50.44437808224692,0 5.967591903185648,50.44456186728351,0 5.967409062515263,50.44467793043243,0 5.967249404802573,50.44477175888019,0 5.966957166172238,50.44493644492218,0 5.966741131121149,50.44505290885186,0 5.966529016485193,50.44515337199946,0 5.966218345672818,50.44528893513478,0 5.966006882317412,50.44537964611459,0 5.965860744172966,50.44543813892167,0 5.965573273426439,50.44554658451246,0 5.96493385510221,50.44580553275458,0 5.964368513253355,50.44598159389296,0 5.963781735972491,50.44609129832782,0 5.963640602719947,50.44613253750391,0 5.96353523733391,50.4461390961912,0 5.963473282334959,50.44611218397348,0 5.96344829070995,50.44606612804094,0 5.963481075109325,50.44600619831767,0 5.963861640690194,50.44559195946104,0 5.964237004286639,50.44517363110605,0 5.964876825671612,50.44446298795707,0 5.965338105581481,50.44395979945133,0 5.96608298028414,50.44313752928157,0 5.966629338935281,50.44255502774224,0 5.967170078731541,50.44197210933786,0 5.967323999706446,50.44180738072009,0 5.967350732993411,50.4417573103696,0 5.967361346533337,50.44169734886621,0 5.967328196656513,50.44163606288013,0 5.967278296007141,50.4415813134388,0 5.96720566194122,50.44153650887942,0 5.967111419592294,50.44150894191171,0 5.966993153897977,50.44149641317227,0 5.966725650083397,50.44150552192976,0 5.966590554260449,50.44150759779787,0 5.96653875171042,50.44149734269573,0 5.966504256896974,50.44148148137618,0 5.966474720083759,50.44146106139022,0 5.966450573562936,50.44142706581415,0 5.966442210097236,50.44140258554548,0 5.966484886917134,50.44105660595064,0 5.966560274093215,50.44047408006708,0 5.966607832420332,50.43995825330031,0 5.966632331609469,50.43979689984219,0 5.966682168733756,50.43954233877763,0 5.966739612427419,50.43933497900303,0 5.966786151040202,50.43920069034122,0 5.966855200716099,50.43902509146275,0 5.966942569376606,50.43887030383183,0 5.967318641879585,50.43826046944378,0 5.9676936600766,50.43765248736084,0 5.967946471502794,50.43725797351684,0 5.968036388661274,50.43710243208014,0 5.96810036153693,50.4369460902138,0 5.968117566807978,50.43683924050531,0 5.968116788389328,50.43671077170524,0 5.968103528222883,50.43659945689382,0 5.968064423420387,50.43644674228082,0 5.968012151456509,50.43635851314427,0 5.96787777422203,50.43615342040125,0 5.967716054501175,50.43592313722898,0 5.967501433226683,50.43561927275516,0 5.967370958066587,50.43543480043034,0 5.967161231039501,50.43513763653343,0 5.966996080250178,50.43492250321005,0 5.966913026355016,50.43481896682616,0 5.966827657987142,50.43473815505821,0 5.966746559883949,50.43466282724958,0 5.966665883324696,50.43458450900373,0 5.96650436768951,50.43445742738921,0 5.966363916279107,50.43436044547942,0 5.966220225979169,50.434267753458,0 5.966058552157858,50.43416954277795,0 5.965929899052169,50.43410111260173,0 5.965721033128952,50.43400248061035,0 5.965512116170899,50.43391538959155,0 5.965313768129928,50.43383838732387,0 5.965082578920811,50.43375852318221,0 5.964845941760664,50.43367908913839,0 5.964242665985749,50.43348066957361,0 5.963717596930833,50.43330776938895,0 5.963104327874595,50.43309805974967,0 5.962823625162841,50.43299665528159,0 5.962554323962421,50.43288521121089,0 5.962294070765948,50.43275904613785,0 5.961969856676232,50.43257801333244,0 5.96169967043781,50.43240695088537,0 5.961464918247643,50.43226158854212,0 5.961146143160176,50.43206282400023,0 5.960870568300585,50.43186151907852,0 5.960595900272782,50.43164271077806,0 5.960397512630788,50.43145894807839,0 5.96014878105815,50.43118779842852,0 5.96003998820986,50.43104725823041,0 5.959964870132302,50.43093389545273,0 5.959743056733354,50.43056038338281,0 5.959666893913742,50.43041575016226,0 5.959632175620582,50.43031050507675,0 5.959615816968748,50.43019892953281,0 5.95962230322672,50.43010357978724,0 5.959641586586608,50.4300116018313,0 5.959685140601783,50.42990648009699,0 5.959739350235704,50.42981504247333,0 5.959829638165917,50.42971604558085,0 5.959919814963886,50.42963534115723,0 5.960038027440334,50.42954936890737,0 5.960160774398071,50.42948469554071,0 5.960253689086215,50.42943945361822,0 5.960518665102503,50.42931342781662,0 5.960880448358936,50.42913989353121,0 5.961366241247593,50.42890209957562,0 5.961446292768764,50.42886413518379,0 5.96150699841867,50.42883641341485,0 5.96156148467106,50.42881567247245,0 5.961660037557732,50.42878961038816,0 5.961743950434379,50.42878173674895,0 5.961834750864075,50.42877555007451,0 5.961925888066699,50.42878236025857,0 5.962003307106219,50.42879314475083,0 5.96209178311192,50.42881397653817,0 5.962177741910439,50.42884761835288,0 5.962264700549489,50.4288936362002,0 5.962347062140935,50.42895478178979,0 5.962457898225666,50.4290682952358,0 5.962636814478739,50.42924105730988,0 5.962835355150982,50.42942921310627,0 5.962998661641572,50.4295930548767,0 5.963186376426188,50.42978861484604,0 5.963357725479814,50.42994814576716,0 5.963529660128413,50.43011966939103,0 5.963649877166657,50.4302342170092,0 5.963761298181991,50.43035891563926,0 5.963872155114045,50.43046060945217,0 5.963957204375758,50.43052585100673,0 5.964043481709515,50.43058167967433,0 5.964167871798005,50.43063748505683,0 5.964275269561807,50.43067620610697,0 5.964406751585156,50.43071065864095,0 5.964509580758472,50.43073099402233,0 5.964615738090857,50.43074483348055,0 5.964701253960623,50.43074808052218,0 5.964780219116237,50.43075041200058,0 5.964875656258666,50.4307450513986,0 5.964982903744978,50.43073426911778,0 5.965101298699098,50.43071099557834,0 5.965204678068304,50.43068544516633,0 5.965306277782425,50.43065368329943,0 5.965396387212323,50.43061674533185,0 5.965556255106865,50.43054868443662,0 5.965656112990607,50.43050852610786,0 5.965788085133981,50.43046012414759,0 5.965928072744424,50.43042179887621,0 5.966039026619172,50.43041038663133,0 5.966154198508898,50.43040228232181,0 5.96629406229405,50.4304063296806,0 5.96645412570088,50.43043173972548,0 5.966580523907661,50.4304576621089,0 5.966690156238355,50.43050002836556,0 5.966788892104178,50.43054773373477,0 5.966877741766146,50.43059611993959,0 5.966975744313523,50.43066953229921,0 5.967062966752355,50.43075414359077,0 5.967159748325949,50.43089436567786,0 5.967287196583038,50.4310936000331,0 5.967448428975535,50.43135513504359,0 5.967656246584676,50.43167850058396,0 5.96781358580391,50.43192916096556,0 5.968050281784924,50.43229890911388,0 5.968175662284647,50.43249097866727,0 5.968483519934161,50.43298176848838,0 5.968678040383349,50.43329247700675,0 5.968779035318244,50.43345339959135,0 5.968853680138928,50.433541017531,0 5.968980484335271,50.43367658598768,0 5.969100212409866,50.43377358606021,0 5.969227665958141,50.43386284303718,0 5.969400660054369,50.43396263657651,0 5.969556721664643,50.43403337751542,0 5.969703352833071,50.43408723576413,0 5.969848728539944,50.43413188532622,0 5.969986526942652,50.43417022705602,0 5.970136570539958,50.43420469015172,0 5.970277009330416,50.43422798421265,0 5.970476507555516,50.43424721494848,0 5.970637958841776,50.43426087898912,0 5.970767670430686,50.4342604781967,0 5.970883504699083,50.43425947628777,0 5.971147964292667,50.43424646859652,0 5.971377526326589,50.43423588054081,0 5.971528318433529,50.43422849605277,0 5.971630020212288,50.43421907801047,0 5.971809317270848,50.43420554940078,0 5.971920507781268,50.43417620782275,0 5.972022967932391,50.43415250672239,0 5.972172290724442,50.43410607095089,0 5.972320832992708,50.43403687700003,0 5.972457426622095,50.43396229606269,0 5.972555787800298,50.43389537835637,0 5.972666005501964,50.43379604988255,0 5.972750772962375,50.43370593399953,0 5.97281780503105,50.4336050619259,0 5.972862757860469,50.43350677637293,0 5.972881368371661,50.43343603183516,0 5.972950240491748,50.43319384871888,0 5.973004822930996,50.43302650571776,0 5.973052720028105,50.43286179863993,0 5.973131198476045,50.43258093581965,0 5.973191627838679,50.43237953981902,0 5.973297172389957,50.4320054671761,0 5.973357218538331,50.4318059542508,0 5.973465374517564,50.43145317645508,0 5.973523696526746,50.43124345170467,0 5.973585209458254,50.43107493976396,0 5.973635091358245,50.43095970463013,0 5.973681990570578,50.43084996527487,0 5.973750546686942,50.43069417570114,0 5.97384158730163,50.43050167475018,0 5.973903502755514,50.43037052845009,0 5.974057735867335,50.43005832611808,0 5.974126685027676,50.42994314020125,0 5.974232175505869,50.42974194500702,0 5.974271205841153,50.42965194016463,0 5.974294067057553,50.42957143690205,0 5.974328236174729,50.42943859011839,0 5.97430845629991,50.42932131690753,0 5.974252484190004,50.4292288856325,0 5.974214919313054,50.42917841802725,0 5.974094985982708,50.42908577017693,0 5.973995199389059,50.42903439162614,0 5.973864279133164,50.42898461102341,0 5.973689057484952,50.42891479169351,0 5.973305023741087,50.42876553693972,0 5.973046784538065,50.42866921353804,0 5.972849621006584,50.42858195473185,0 
					</coordinates>
				</LinearRing>
			</outerBoundaryIs>
		</Polygon>
	</Placemark>
	<Placemark id="0B82DD4F3640FE9D7F14">
		<name>LInea Central pista rodadura</name>
		<LookAt>
			<longitude>5.973643279070433</longitude>
			<latitude>50.42875473973709</latitude>
			<altitude>439.90270062139</altitude>
			<heading>-148.8975815785726</heading>
			<tilt>16.2352732126041</tilt>
			<gx:fovy>35</gx:fovy>
			<range>161.1777444534164</range>
			<altitudeMode>absolute</altitudeMode>
		</LookAt>
		<styleUrl>#__managed_style_0E4FA76F9940FE492214</styleUrl>
		<Polygon>
			<outerBoundaryIs>
				<LinearRing>
					<coordinates>
						5.973240524884071,50.4287843646807,0 5.973078503869726,50.42872495202035,0 5.972825999283147,50.42862584249352,0 5.97251928054262,50.42851065168388,0 5.972385726078873,50.42844419502546,0 5.972313815946424,50.42838856315004,0 5.972254780196615,50.42832497675669,0 5.972219371590029,50.42825019939746,0 5.972205008694436,50.42818352341627,0 5.97219528536987,50.42811785268609,0 5.97219880940925,50.42804745238998,0 5.972224831662643,50.42795703077977,0 5.972271010761108,50.4278995489751,0 5.97232622030988,50.42784813367253,0 5.972384651512817,50.42779691858939,0 5.972446306635463,50.42775676121172,0 5.972534160493912,50.42772205905261,0 5.972597192341953,50.42770078800305,0 5.97266746569471,50.42768318509587,0 5.972719314867804,50.42767396355819,0 5.97278847938354,50.42766697942312,0 5.972851039807921,50.42766285983159,0 5.972898886660401,50.42766156523547,0 5.972959749395272,50.42766630678378,0 5.973017809889186,50.42767018902373,0 5.973086488512854,50.42768306354199,0 5.973152420743329,50.42770004146605,0 5.973227221217443,50.42772268295478,0 5.973304324217827,50.42774781936451,0 5.973395195118931,50.42779063313969,0 5.973458351969521,50.42782200177982,0 5.973542854168958,50.4278593927544,0 5.973671493598626,50.42792255492034,0 5.973763926896543,50.42796376842794,0 5.973921500613697,50.42803658024722,0 5.974076862976032,50.42810713266999,0 5.974307989804828,50.42820816572321,0 5.974526897487229,50.42831270341857,0 5.97469628414421,50.42837401554041,0 5.9748763771727,50.42846035174476,0 5.975121483398535,50.4285724383812,0 5.975286274361851,50.42864525263732,0 5.975482535969396,50.4287320015156,0 5.975852497297209,50.42889658713145,0 5.976180121089545,50.42903736835478,0 5.976424581713788,50.42914487628999,0 5.976716085027176,50.42927537398707,0 5.976837827625738,50.42934785732146,0 5.976896535918046,50.42940909656441,0 5.97694127951865,50.42947068894733,0 5.976985268292694,50.42954142842321,0 5.977004470201896,50.42962875248527,0 5.977009027447558,50.42970516495384,0 5.976996022419463,50.42978881399499,0 5.976967783251778,50.42988474358319,0 5.976927658174898,50.42999668515825,0 5.976876533775504,50.43012469926774,0 5.976811771043327,50.43031611538039,0 5.976774268179373,50.43043381307105,0 5.976724676962859,50.43056922979689,0 5.976699031566552,50.43067338837282,0 5.976703132836876,50.43074650240585,0 5.976738533297199,50.43083417677718,0 5.976789333121985,50.43091827497591,0 5.976884718318807,50.43099727852555,0 5.976958479101009,50.43103744561812,0 5.977100643760633,50.43109720186705,0 5.977238265427656,50.43114570487514,0 5.97735007097036,50.43120420683871,0 5.977450316190945,50.43129035715461,0 5.977495447488204,50.43136882713753,0 5.977516056513929,50.43144731507281,0 5.977524647067098,50.43154674903408,0 5.977481490455454,50.43166299703785,0 5.977419931959154,50.43182242528197,0 5.977354412182089,50.43197003177144,0 5.977298283527386,50.43209272798509,0 5.977211580563737,50.43228448183363,0 5.977129652068469,50.43246743837253,0 5.977047202996859,50.43265933812238,0 5.976930491479928,50.43290460904755,0 5.976856103711603,50.43310194338838,0 5.976790454456991,50.4332245419475,0 5.976633284869905,50.43356909477347,0 5.976507891078475,50.4338393493199,0 5.97635478738773,50.43418409669245,0 5.976261861947167,50.4343963526328,0 5.976121691426877,50.43469971772477,0 5.975981721873909,50.43499338656257,0 5.975835355649329,50.43532828966282,0 5.97572489127538,50.43557034487304,0 5.975535740014366,50.43599203549373,0 5.975391891533639,50.43634532507797,0 5.975215533962992,50.43673546719641,0 5.975111553503329,50.43697305900477,0 5.974927711763098,50.43738843866268,0 5.97479116254063,50.43768009047794,0 5.974660373543237,50.43798164834641,0 5.97452994527705,50.43824988525548,0 5.974295121504783,50.43857802088907,0 5.974119373359786,50.43878397769473,0 5.973788145877044,50.43908566221818,0 5.97357764811786,50.43931244914259,0 5.973247058014548,50.43964137297975,0 5.973013188298295,50.43988396867187,0 5.972661945758042,50.44022442220328,0 5.972455770659648,50.4404395087004,0 5.972190402407255,50.44071595833648,0 5.972072778025281,50.44090143596863,0 5.972001156409783,50.44108079197825,0 5.971951593087277,50.4413065045432,0 5.97189524116315,50.44152133669725,0 5.971763830316805,50.44172197120317,0 5.971572242621797,50.44196908846897,0 5.971350329189367,50.44213640798207,0 5.971070834271856,50.44226406573011,0 5.970762437373258,50.44238902417703,0 5.970470060041193,50.44249978042787,0 5.970342387991061,50.44257641740219,0 5.969981618690268,50.44285087015432,0 5.969508270943608,50.4432131490023,0 5.968890929039632,50.44367872051096,0 5.968219748529322,50.4441746843687,0 5.967650591698936,50.44459238508068,0 5.967425811435954,50.44472744092153,0 5.967233754093404,50.44484155977591,0 5.966898961147318,50.44502715289867,0 5.966665982698444,50.44514412737468,0 5.966480983858117,50.44523480765321,0 5.966232677056578,50.44534856872734,0 5.965997353784029,50.44544336935264,0 5.9657463922936,50.4455454545565,0 5.965436773530093,50.44566430454378,0 5.965002241237825,50.44582904247501,0 5.96464345721849,50.44594657117293,0 5.96420387440512,50.44609071987013,0 5.963899775867549,50.44617690320256,0 5.963693226717506,50.44620711308546,0 5.963541849643111,50.44619181823182,0 5.963444880752952,50.4461433723792,0 5.963384151488995,50.44608500948171,0 5.963391607808037,50.44601095239459,0 5.963462116820406,50.44592009033879,0 5.963583851673984,50.44578412225606,0 5.963806073960615,50.44554732992996,0 5.963987620025937,50.44533028330779,0 5.964126819826403,50.4451834068076,0 5.96433348159554,50.44495731041796,0 5.964469044338392,50.44479092561482,0 5.96466214360345,50.44458628974781,0 5.964844368962492,50.44438860661793,0 5.965115624251043,50.44409742949777,0 5.965302261025198,50.44388653486055,0 5.96552333044337,50.44362008815533,0 5.965714967320257,50.44343083056195,0 5.965985491474535,50.44314156380184,0 5.966199450496155,50.44289411185439,0 5.9664427935775,50.44263517689538,0 5.966712589404,50.44234046719656,0 5.966941033296782,50.44210903907591,0 5.967084396929607,50.44194690077625,0 5.96720008631242,50.44184125807036,0 5.967270147975892,50.44177452697502,0 5.967293410614307,50.4416996751709,0 5.967251729022869,50.44164011085741,0 5.967184570640653,50.44158207201872,0 5.967094411943245,50.44154846787599,0 5.966951490999286,50.44155113487334,0 5.966847962284964,50.44155616299952,0 5.966737764758181,50.44156468857731,0 5.966610555421457,50.44156451471355,0 5.966505664074989,50.44154339901343,0 5.96642660041309,50.44150793297501,0 5.966374020576326,50.44145868155963,0 5.966358029421245,50.44140642064114,0 5.966362239661882,50.44134519103616,0 5.966382740435221,50.44116151153244,0 5.966408030199444,50.44103954054184,0 5.966434246109387,50.44079117740596,0 5.966456250900736,50.44059129471088,0 5.966475960255044,50.44044111247921,0 5.966512480450852,50.44014229359729,0 5.966517633935091,50.43995524134094,0 5.96656101666418,50.43971076328774,0 5.966600094828824,50.4395259514453,0 5.966663210613243,50.43929707432697,0 5.966735720978635,50.43910280479335,0 5.966793180672498,50.43897133167591,0 5.96692823218569,50.43875571065519,0 5.967055390783703,50.43856193999004,0 5.967271262106399,50.43823062056698,0 5.967379861053315,50.43801265559851,0 5.967566944597831,50.43775251727495,0 5.967682470287865,50.43754573002656,0 5.96779168668681,50.43736884039481,0 5.967934898985529,50.4371580138521,0 5.968020535304506,50.43698951509492,0 5.9680541630925,50.43682946164007,0 5.968043317202154,50.43658510821379,0 5.967960463478992,50.43639506742059,0 5.967812687151516,50.43617028820399,0 5.967616259130349,50.43588897007938,0 5.967446554846423,50.43564109617443,0 5.967210154385956,50.43531886671462,0 5.966943769676445,50.43493645642817,0 5.966814904777054,50.43479589707513,0 5.966666528025428,50.43464660504358,0 5.96650984730549,50.43452348839072,0 5.966212997826792,50.43431382810963,0 5.965941653431619,50.43415608695013,0 5.965729386538456,50.43405763074583,0 5.965460150919237,50.43394007346653,0 5.965190984698985,50.43384137309442,0 5.965029554134209,50.43379042407839,0 5.964842009891953,50.43372782505691,0 5.96445095680612,50.4335945615048,0 5.964156335182302,50.43350255083777,0 5.963870096452184,50.43340175055059,0 5.96343255887983,50.43325573062159,0 5.963053146288766,50.43312845788535,0 5.962692080076916,50.43299375476393,0 5.962487080589492,50.43290460458493,0 5.962302604428144,50.43281570562192,0 5.962102688444038,50.43270929526835,0 5.961926570157123,50.43260011316544,0 5.961294445651784,50.43221443350277,0 5.960908702780459,50.43194431856827,0 5.96056400627464,50.4316767661011,0 5.960361359985211,50.4314919046796,0 5.960232880081335,50.43136181071281,0 5.960106586161434,50.43121501147119,0 5.959964665303468,50.43103637226169,0 5.959830402888322,50.43081415858506,0 5.959715967750117,50.43062570100328,0 5.95961658332171,50.43046122674514,0 5.959581449114706,50.43032771090597,0 5.959557910493734,50.43013135377636,0 5.959588086026226,50.43002276489638,0 5.959616922810527,50.42993382627971,0 5.959668185697582,50.42982780322773,0 5.959740770731026,50.42974176738414,0 5.959826669522565,50.42964836324279,0 5.959967207405256,50.4295498276084,0 5.960128982744781,50.42944937648062,0 5.960347176106479,50.42934588101483,0 5.96062136518804,50.42921968897637,0 5.960826957286224,50.429118359916,0 5.961147994403495,50.42896014810567,0 5.961406271528721,50.42883319641417,0 5.961521311159084,50.42878849701822,0 5.961595976586964,50.42875783933388,0 5.961731073582335,50.42873312366856,0 5.961828484081842,50.42873750992534,0 5.961933402184107,50.42873736574193,0 5.962058754017741,50.42875949815867,0 5.96214105328704,50.4287856779013,0 5.962235567576335,50.42882958007272,0 5.962318718027239,50.42887483232975,0 5.96240317733109,50.42893254464103,0 5.962470853907513,50.42900367394147,0 5.962625828822715,50.42916153813046,0 5.962859898133228,50.42938890580223,0 5.963085223519997,50.42961912297757,0 5.963258642130029,50.42978869604282,0 5.963474937146128,50.43000165828303,0 5.963663073652102,50.43018336530202,0 5.963776871648188,50.43030737968664,0 5.964005549921105,50.43050984883047,0 5.964132214097313,50.43058265275148,0 5.964266494210402,50.43063031337038,0 5.964453401529104,50.43068640950318,0 5.964653126251505,50.43071114443252,0 5.964827686159413,50.43070771068466,0 5.965048472512073,50.43068466077342,0 5.965236110325081,50.43063056272904,0 5.96538964349246,50.43056728087408,0 5.965559464564825,50.43049916913991,0 5.965721516005631,50.43043039990936,0 5.965878025684408,50.43039066339912,0 5.966059986732857,50.43036724370845,0 5.966210037145173,50.43036197764346,0 5.966376809388847,50.43037415335044,0 5.966532695400146,50.43041670920017,0 5.966675907780381,50.43046000101812,0 5.966803637859894,50.43051041174603,0 5.966933423535861,50.43058362264878,0 5.967047666877088,50.43067450655335,0 5.967134489813068,50.43077711974986,0 5.967218496613125,50.43088978794328,0 5.967349339488859,50.43109237239671,0 5.967469909378811,50.43128985625212,0 5.967675803468029,50.43161264453185,0 5.967880564830375,50.43192852391552,0 5.968239364118935,50.43249624026397,0 5.968529892487537,50.43295654336786,0 5.968708992264206,50.43323158735608,0 5.968809084750806,50.43338544026083,0 5.968942055229474,50.43356442572899,0 5.969049912718953,50.43367945109688,0 5.969200308738872,50.43378613314241,0 5.969384907163198,50.43390805469549,0 5.969524544575291,50.43397473321247,0 5.969719706015759,50.43404213398241,0 5.969985831144453,50.43412659549173,0 5.970238239008882,50.43417795066586,0 5.970420045390432,50.43420571350309,0 5.970674689089219,50.43421931790933,0 5.971002564252659,50.43420833682454,0 5.971295910653629,50.43419755758776,0 5.971560538422926,50.43418316115823,0 5.971807809527179,50.43415954180844,0 5.972055259420634,50.43410467093234,0 5.972248726142237,50.43401610454029,0 5.972397315385088,50.43393306837188,0 5.972578778142788,50.43380641735179,0 5.972680274213675,50.43370354110093,0 5.972763679080368,50.43355971852709,0 5.97282813923756,50.43339701541198,0 5.972880399993623,50.43322103484102,0 5.972924041088341,50.43307055249469,0 5.972978630572894,50.43286940456134,0 5.973024931879323,50.43269860905235,0 5.973104333471264,50.43248557876149,0 5.973140625717832,50.43231392070392,0 5.973204821645006,50.43213887178294,0 5.973239834156856,50.43200241909994,0 5.973291328724306,50.4318366279871,0 5.973338442924128,50.43168282432326,0 5.9733720461373,50.43152826692199,0 5.973409011455226,50.43139579510716,0 5.97346554725287,50.43124845723869,0 5.973507144593682,50.43111155045101,0 5.973569647188981,50.43095740051463,0 5.973614941025403,50.43084040378695,0 5.973709593322023,50.43064111187805,0 5.973781366756079,50.43048966850775,0 5.973850602062408,50.43034206469961,0 5.973911955813007,50.43022935857589,0 5.973967946452352,50.43011399116571,0 5.974017835017811,50.43002534507161,0 5.974077814360903,50.42991256603522,0 5.974131715490443,50.4297891829622,0 5.974191174689567,50.42967356526783,0 5.974229843714369,50.42958209735645,0 5.974248796354367,50.42951822459325,0 5.974255242356959,50.42942578560032,0 5.974243323243962,50.42934271818319,0 5.974194053272759,50.42925765729362,0 5.974137040403813,50.42918351289769,0 5.974050429922226,50.42911217186168,0 5.973927063304904,50.42905843355298,0 5.973814336353811,50.42901241595906,0 5.97367068169862,50.42895526632792,0 5.973532412240017,50.42890213883408,0 5.973368933050692,50.42883753975508,0 5.973240524884071,50.4287843646807,0 
					</coordinates>
				</LinearRing>
			</outerBoundaryIs>
		</Polygon>
	</Placemark>
</Document>
</kml>
