<?xml version="1.0" encoding="UTF-8"?>
<kml xmlns="http://www.opengis.net/kml/2.2"><Document><Placemark><name>suzuka</name><LineString><tessellate>1</tessellate><coordinates>136.53865388,34.84494426,0 136.53868964,34.84490978,0 136.53872533,34.84487526,0 136.53876095,34.84484069,0 136.53879652,34.84480609,0 136.53883204,34.84477145,0 136.53886750,34.84473678,0 136.53890293,34.84470208,0 136.53893832,34.84466736,0 136.53897368,34.84463262,0 136.53900901,34.84459786,0 136.53904432,34.84456308,0 136.53907962,34.84452830,0 136.53911490,34.84449350,0 136.53915018,34.84445871,0 136.53918546,34.84442391,0 136.53922074,34.84438912,0 136.53925604,34.84435433,0 136.53929134,34.84431955,0 136.53932665,34.84428477,0 136.53936197,34.84425000,0 136.53939730,34.84421524,0 136.53943263,34.84418048,0 136.53946797,34.84414572,0 136.53950331,34.84411096,0 136.53953866,34.84407621,0 136.53957402,34.84404146,0 136.53960937,34.84400672,0 136.53964473,34.84397197,0 136.53968009,34.84393723,0 136.53971546,34.84390248,0 136.53975082,34.84386774,0 136.53978618,34.84383300,0 136.53982155,34.84379825,0 136.53985691,34.84376351,0 136.53989227,34.84372876,0 136.53992763,34.84369402,0 136.53996298,34.84365927,0 136.53999833,34.84362452,0 136.54003369,34.84358976,0 136.54006903,34.84355501,0 136.54010438,34.84352026,0 136.54013972,34.84348550,0 136.54017507,34.84345074,0 136.54021040,34.84341598,0 136.54024574,34.84338122,0 136.54028107,34.84334645,0 136.54031640,34.84331169,0 136.54035173,34.84327692,0 136.54038705,34.84324215,0 136.54042237,34.84320737,0 136.54045769,34.84317260,0 136.54049300,34.84313782,0 136.54052831,34.84310304,0 136.54056361,34.84306825,0 136.54059892,34.84303347,0 136.54063421,34.84299868,0 136.54066951,34.84296389,0 136.54070480,34.84292910,0 136.54074008,34.84289430,0 136.54077537,34.84285950,0 136.54081064,34.84282470,0 136.54084592,34.84278989,0 136.54088118,34.84275508,0 136.54091645,34.84272027,0 136.54095171,34.84268546,0 136.54098696,34.84265064,0 136.54102221,34.84261582,0 136.54105745,34.84258099,0 136.54109269,34.84254616,0 136.54112792,34.84251133,0 136.54116315,34.84247650,0 136.54119838,34.84244166,0 136.54123359,34.84240682,0 136.54126880,34.84237197,0 136.54130401,34.84233712,0 136.54133921,34.84230227,0 136.54137441,34.84226741,0 136.54140959,34.84223255,0 136.54144478,34.84219768,0 136.54147995,34.84216281,0 136.54151512,34.84212793,0 136.54155029,34.84209306,0 136.54158544,34.84205817,0 136.54162059,34.84202329,0 136.54165574,34.84198839,0 136.54169087,34.84195350,0 136.54172600,34.84191860,0 136.54176113,34.84188369,0 136.54179624,34.84184878,0 136.54183135,34.84181387,0 136.54186645,34.84177895,0 136.54190155,34.84174402,0 136.54193664,34.84170909,0 136.54197172,34.84167416,0 136.54200679,34.84163922,0 136.54204185,34.84160428,0 136.54207691,34.84156933,0 136.54211196,34.84153437,0 136.54214700,34.84149941,0 136.54218203,34.84146445,0 136.54221706,34.84142947,0 136.54225207,34.84139450,0 136.54228708,34.84135952,0 136.54232208,34.84132453,0 136.54235707,34.84128953,0 136.54239205,34.84125454,0 136.54242703,34.84121953,0 136.54246200,34.84118452,0 136.54249697,34.84114952,0 136.54253195,34.84111452,0 136.54256694,34.84107952,0 136.54260196,34.84104455,0 136.54263700,34.84100958,0 136.54267208,34.84097464,0 136.54270719,34.84093973,0 136.54274235,34.84090484,0 136.54277757,34.84086999,0 136.54281284,34.84083518,0 136.54284817,34.84080040,0 136.54288358,34.84076568,0 136.54291907,34.84073100,0 136.54295463,34.84069637,0 136.54299029,34.84066180,0 136.54302604,34.84062730,0 136.54306190,34.84059285,0 136.54309777,34.84055843,0 136.54313346,34.84052390,0 136.54316875,34.84048915,0 136.54320343,34.84045403,0 136.54323727,34.84041844,0 136.54327007,34.84038223,0 136.54330161,34.84034529,0 136.54333167,34.84030748,0 136.54336004,34.84026868,0 136.54338649,34.84022882,0 136.54341078,34.84018798,0 136.54343265,34.84014625,0 136.54345185,34.84010373,0 136.54346813,34.84006052,0 136.54348123,34.84001671,0 136.54349091,34.83997242,0 136.54349691,34.83992772,0 136.54349899,34.83988273,0 136.54349715,34.83983757,0 136.54349178,34.83979242,0 136.54348329,34.83974747,0 136.54347210,34.83970289,0 136.54345863,34.83965886,0 136.54344342,34.83961536,0 136.54342712,34.83957220,0 136.54341040,34.83952918,0 136.54339390,34.83948612,0 136.54337796,34.83944290,0 136.54336209,34.83939964,0 136.54334567,34.83935647,0 136.54332808,34.83931352,0 136.54330871,34.83927095,0 136.54328703,34.83922903,0 136.54326260,34.83918826,0 136.54323501,34.83914914,0 136.54320384,34.83911218,0 136.54316879,34.83907783,0 136.54313007,34.83904626,0 136.54308804,34.83901756,0 136.54304307,34.83899185,0 136.54299550,34.83896921,0 136.54294571,34.83894976,0 136.54289403,34.83893358,0 136.54284084,34.83892078,0 136.54278650,34.83891145,0 136.54273136,34.83890570,0 136.54267584,34.83890358,0 136.54262041,34.83890513,0 136.54256551,34.83891040,0 136.54251158,34.83891942,0 136.54245908,34.83893223,0 136.54240846,34.83894888,0 136.54236016,34.83896940,0 136.54231464,34.83899384,0 136.54227223,34.83902212,0 136.54223277,34.83905368,0 136.54219598,34.83908781,0 136.54216158,34.83912381,0 136.54212927,34.83916098,0 136.54209871,34.83919878,0 136.54206938,34.83923698,0 136.54204076,34.83927542,0 136.54201232,34.83931393,0 136.54198359,34.83935237,0 136.54195443,34.83939069,0 136.54192492,34.83942891,0 136.54189511,34.83946704,0 136.54186506,34.83950508,0 136.54183482,34.83954305,0 136.54180446,34.83958097,0 136.54177404,34.83961884,0 136.54174361,34.83965668,0 136.54171323,34.83969449,0 136.54168293,34.83973229,0 136.54165271,34.83977010,0 136.54162256,34.83980793,0 136.54159250,34.83984579,0 136.54156251,34.83988370,0 136.54153261,34.83992167,0 136.54150280,34.83995971,0 136.54147307,34.83999784,0 136.54144342,34.84003608,0 136.54141380,34.84007438,0 136.54138409,34.84011266,0 136.54135414,34.84015082,0 136.54132384,34.84018875,0 136.54129305,34.84022637,0 136.54126163,34.84026357,0 136.54122945,34.84030026,0 136.54119639,34.84033634,0 136.54116231,34.84037170,0 136.54112691,34.84040610,0 136.54108983,34.84043920,0 136.54105067,34.84047064,0 136.54100904,34.84050009,0 136.54096464,34.84052720,0 136.54091768,34.84055176,0 136.54086866,34.84057359,0 136.54081804,34.84059254,0 136.54076629,34.84060843,0 136.54071374,34.84062131,0 136.54066050,34.84063152,0 136.54060665,34.84063937,0 136.54055231,34.84064522,0 136.54049756,34.84064941,0 136.54044250,34.84065228,0 136.54038723,34.84065416,0 136.54033184,34.84065539,0 136.54027644,34.84065634,0 136.54022114,34.84065757,0 136.54016606,34.84065981,0 136.54011133,34.84066381,0 136.54005709,34.84067031,0 136.54000346,34.84067996,0 136.53995074,34.84069291,0 136.53989923,34.84070907,0 136.53984928,34.84072834,0 136.53980120,34.84075063,0 136.53975529,34.84077581,0 136.53971178,34.84080371,0 136.53967090,34.84083414,0 136.53963289,34.84086694,0 136.53959798,34.84090192,0 136.53956639,34.84093891,0 136.53953837,34.84097772,0 136.53951415,34.84101819,0 136.53949389,34.84106012,0 136.53947703,34.84110320,0 136.53946242,34.84114701,0 136.53944892,34.84119113,0 136.53943536,34.84123515,0 136.53942076,34.84127871,0 136.53940520,34.84132188,0 136.53938925,34.84136492,0 136.53937345,34.84140806,0 136.53935835,34.84145154,0 136.53934405,34.84149543,0 136.53933011,34.84153954,0 136.53931605,34.84158366,0 136.53930142,34.84162759,0 136.53928574,34.84167115,0 136.53926854,34.84171412,0 136.53924935,34.84175632,0 136.53922771,34.84179753,0 136.53920314,34.84183757,0 136.53917541,34.84187630,0 136.53914476,34.84191370,0 136.53911149,34.84194977,0 136.53907590,34.84198453,0 136.53903829,34.84201796,0 136.53899882,34.84204993,0 136.53895747,34.84208014,0 136.53891422,34.84210830,0 136.53886906,34.84213408,0 136.53882201,34.84215727,0 136.53877324,34.84217786,0 136.53872297,34.84219594,0 136.53867140,34.84221157,0 136.53861874,34.84222483,0 136.53856520,34.84223579,0 136.53851100,34.84224452,0 136.53845635,34.84225110,0 136.53840145,34.84225560,0 136.53834645,34.84225822,0 136.53829138,34.84225943,0 136.53823624,34.84225973,0 136.53818105,34.84225963,0 136.53812581,34.84225960,0 136.53807055,34.84225998,0 136.53801532,34.84226088,0 136.53796019,34.84226241,0 136.53790522,34.84226466,0 136.53785047,34.84226801,0 136.53779616,34.84227368,0 136.53774249,34.84228303,0 136.53768962,34.84229601,0 136.53763766,34.84231168,0 136.53758676,34.84232939,0 136.53753707,34.84234911,0 136.53748876,34.84237087,0 136.53744201,34.84239473,0 136.53739697,34.84242071,0 136.53735380,34.84244875,0 136.53731264,34.84247876,0 136.53727361,34.84251064,0 136.53723687,34.84254430,0 136.53720255,34.84257965,0 136.53717078,34.84261658,0 136.53714171,34.84265501,0 136.53711548,34.84269484,0 136.53709222,34.84273597,0 136.53707208,34.84277825,0 136.53705521,34.84282147,0 136.53704176,34.84286543,0 136.53703187,34.84290995,0 136.53702571,34.84295480,0 136.53702341,34.84299981,0 136.53702513,34.84304476,0 136.53703102,34.84308947,0 136.53704110,34.84313375,0 136.53705475,34.84317759,0 136.53707106,34.84322103,0 136.53708913,34.84326412,0 136.53710806,34.84330691,0 136.53712713,34.84334943,0 136.53714617,34.84339180,0 136.53716514,34.84343410,0 136.53718401,34.84347643,0 136.53720273,34.84351890,0 136.53722134,34.84356151,0 136.53723991,34.84360421,0 136.53725851,34.84364694,0 136.53727721,34.84368968,0 136.53729598,34.84373238,0 136.53731416,34.84377517,0 136.53733084,34.84381822,0 136.53734513,34.84386169,0 136.53735615,34.84390574,0 136.53736348,34.84395039,0 136.53736716,34.84399542,0 136.53736727,34.84404067,0 136.53736390,34.84408592,0 136.53735713,34.84413099,0 136.53734703,34.84417568,0 136.53733369,34.84421980,0 136.53731719,34.84426315,0 136.53729760,34.84430554,0 136.53727501,34.84434681,0 136.53724950,34.84438681,0 136.53722116,34.84442543,0 136.53719008,34.84446254,0 136.53715633,34.84449802,0 136.53712002,34.84453173,0 136.53708121,34.84456356,0 136.53704001,34.84459337,0 136.53699650,34.84462107,0 136.53695096,34.84464674,0 136.53690386,34.84467075,0 136.53685568,34.84469346,0 136.53680691,34.84471523,0 136.53675798,34.84473640,0 136.53670899,34.84475704,0 136.53665981,34.84477708,0 136.53661028,34.84479644,0 136.53656029,34.84481505,0 136.53650977,34.84483292,0 136.53645884,34.84485026,0 136.53640764,34.84486725,0 136.53635627,34.84488413,0 136.53630485,34.84490101,0 136.53625330,34.84491756,0 136.53620149,34.84493331,0 136.53614928,34.84494775,0 136.53609656,34.84496042,0 136.53604329,34.84497117,0 136.53598952,34.84498014,0 136.53593534,34.84498750,0 136.53588080,34.84499343,0 136.53582597,34.84499809,0 136.53577092,34.84500167,0 136.53571572,34.84500432,0 136.53566042,34.84500622,0 136.53560510,34.84500753,0 136.53554980,34.84500835,0 136.53549455,34.84500859,0 136.53543936,34.84500819,0 136.53538424,34.84500706,0 136.53532922,34.84500511,0 136.53527431,34.84500226,0 136.53521952,34.84499844,0 136.53516487,34.84499356,0 136.53511038,34.84498754,0 136.53505613,34.84498019,0 136.53500225,34.84497125,0 136.53494890,34.84496042,0 136.53489619,34.84494744,0 136.53484427,34.84493209,0 136.53479305,34.84491476,0 136.53474234,34.84489622,0 136.53469194,34.84487722,0 136.53464165,34.84485853,0 136.53459137,34.84484049,0 136.53454111,34.84482277,0 136.53449089,34.84480499,0 136.53444073,34.84478675,0 136.53439067,34.84476765,0 136.53434085,34.84474750,0 136.53429153,34.84472624,0 136.53424297,34.84470384,0 136.53419542,34.84468026,0 136.53414908,34.84465548,0 136.53410392,34.84462957,0 136.53405987,34.84460258,0 136.53401687,34.84457460,0 136.53397485,34.84454568,0 136.53393374,34.84451589,0 136.53389348,34.84448529,0 136.53385401,34.84445397,0 136.53381525,34.84442197,0 136.53377713,34.84438938,0 136.53373961,34.84435626,0 136.53370260,34.84432267,0 136.53366604,34.84428868,0 136.53362987,34.84425436,0 136.53359402,34.84421978,0 136.53355842,34.84418501,0 136.53352302,34.84415010,0 136.53348773,34.84411514,0 136.53345251,34.84408016,0 136.53341736,34.84404519,0 136.53338225,34.84401021,0 136.53334720,34.84397523,0 136.53331218,34.84394025,0 136.53327721,34.84390527,0 136.53324227,34.84387029,0 136.53320736,34.84383530,0 136.53317247,34.84380032,0 136.53313760,34.84376533,0 136.53310275,34.84373035,0 136.53306791,34.84369536,0 136.53303307,34.84366037,0 136.53299823,34.84362538,0 136.53296338,34.84359039,0 136.53292852,34.84355539,0 136.53289365,34.84352040,0 136.53285876,34.84348541,0 136.53282384,34.84345042,0 136.53278878,34.84341544,0 136.53275346,34.84338052,0 136.53271772,34.84334567,0 136.53268143,34.84331091,0 136.53264433,34.84327654,0 136.53260555,34.84324408,0 136.53256403,34.84321545,0 136.53251872,34.84319257,0 136.53246864,34.84317723,0 136.53241457,34.84316879,0 136.53235887,34.84316431,0 136.53230334,34.84316127,0 136.53224811,34.84315849,0 136.53219306,34.84315525,0 136.53213813,34.84315159,0 136.53208327,34.84314764,0 136.53202845,34.84314356,0 136.53197360,34.84313946,0 136.53191871,34.84313541,0 136.53186380,34.84313140,0 136.53180885,34.84312743,0 136.53175389,34.84312353,0 136.53169890,34.84311968,0 136.53164389,34.84311591,0 136.53158886,34.84311220,0 136.53153383,34.84310856,0 136.53147878,34.84310501,0 136.53142375,34.84310146,0 136.53136875,34.84309780,0 136.53131383,34.84309389,0 136.53125902,34.84308961,0 136.53120433,34.84308488,0 136.53114966,34.84308022,0 136.53109480,34.84307642,0 136.53103960,34.84307428,0 136.53098386,34.84307460,0 136.53092836,34.84307889,0 136.53087522,34.84308971,0 136.53082678,34.84310919,0 136.53078590,34.84313726,0 136.53075537,34.84317313,0 136.53073453,34.84321476,0 136.53071971,34.84325899,0 136.53070774,34.84330349,0 136.53069684,34.84334794,0 136.53068589,34.84339235,0 136.53067475,34.84343671,0 136.53066346,34.84348104,0 136.53065206,34.84352534,0 136.53064059,34.84356962,0 136.53062907,34.84361389,0 136.53061754,34.84365815,0 136.53060605,34.84370241,0 136.53059461,34.84374669,0 136.53058326,34.84379098,0 136.53057199,34.84383528,0 136.53056079,34.84387960,0 136.53054967,34.84392393,0 136.53053861,34.84396827,0 136.53052761,34.84401262,0 136.53051667,34.84405699,0 136.53050578,34.84410136,0 136.53049494,34.84414574,0 136.53048415,34.84419013,0 136.53047340,34.84423452,0 136.53046268,34.84427893,0 136.53045199,34.84432334,0 136.53044133,34.84436775,0 136.53043070,34.84441217,0 136.53042008,34.84445659,0 136.53040947,34.84450101,0 136.53039888,34.84454544,0 136.53038829,34.84458987,0 136.53037770,34.84463430,0 136.53036711,34.84467873,0 136.53035650,34.84472316,0 136.53034589,34.84476758,0 136.53033526,34.84481201,0 136.53032461,34.84485643,0 136.53031393,34.84490085,0 136.53030322,34.84494527,0 136.53029248,34.84498968,0 136.53028170,34.84503408,0 136.53027088,34.84507848,0 136.53026001,34.84512287,0 136.53024908,34.84516725,0 136.53023811,34.84521162,0 136.53022707,34.84525599,0 136.53021596,34.84530034,0 136.53020479,34.84534468,0 136.53019360,34.84538902,0 136.53018253,34.84543338,0 136.53017170,34.84547776,0 136.53016126,34.84552219,0 136.53015133,34.84556669,0 136.53014205,34.84561128,0 136.53013356,34.84565596,0 136.53012599,34.84570077,0 136.53011947,34.84574571,0 136.53011428,34.84579079,0 136.53011098,34.84583591,0 136.53011021,34.84588101,0 136.53011257,34.84592600,0 136.53011869,34.84597080,0 136.53012861,34.84601532,0 136.53014165,34.84605951,0 136.53015706,34.84610331,0 136.53017410,34.84614663,0 136.53019215,34.84618945,0 136.53021110,34.84623182,0 136.53023093,34.84627382,0 136.53025166,34.84631553,0 136.53027330,34.84635704,0 136.53029573,34.84639842,0 136.53031862,34.84643974,0 136.53034156,34.84648107,0 136.53036417,34.84652246,0 136.53038614,34.84656398,0 136.53040772,34.84660556,0 136.53042938,34.84664709,0 136.53045164,34.84668844,0 136.53047495,34.84672951,0 136.53049898,34.84677041,0 136.53052230,34.84681154,0 136.53054341,34.84685329,0 136.53056082,34.84689610,0 136.53057280,34.84694018,0 136.53057669,34.84698504,0 136.53056971,34.84702987,0 136.53055071,34.84707247,0 136.53051979,34.84710955,0 136.53047798,34.84713823,0 136.53042822,34.84715660,0 136.53037384,34.84716318,0 136.53031875,34.84715880,0 136.53026674,34.84714521,0 136.53021892,34.84712397,0 136.53017531,34.84709655,0 136.53013590,34.84706443,0 136.53010069,34.84702908,0 136.53006948,34.84699177,0 136.53004137,34.84695310,0 136.53001530,34.84691349,0 136.52999021,34.84687335,0 136.52996506,34.84683310,0 136.52993939,34.84679297,0 136.52991308,34.84675306,0 136.52988606,34.84671347,0 136.52985821,34.84667431,0 136.52982949,34.84663566,0 136.52979998,34.84659747,0 136.52976988,34.84655962,0 136.52973935,34.84652200,0 136.52970856,34.84648451,0 136.52967765,34.84644706,0 136.52964670,34.84640961,0 136.52961579,34.84637213,0 136.52958501,34.84633456,0 136.52955442,34.84629688,0 136.52952412,34.84625904,0 136.52949418,34.84622100,0 136.52946468,34.84618272,0 136.52943568,34.84614418,0 136.52940691,34.84610552,0 136.52937792,34.84606701,0 136.52934821,34.84602892,0 136.52931731,34.84599152,0 136.52928482,34.84595505,0 136.52925085,34.84591944,0 136.52921573,34.84588451,0 136.52917978,34.84585010,0 136.52914329,34.84581604,0 136.52910638,34.84578230,0 136.52906889,34.84574903,0 136.52903067,34.84571640,0 136.52899156,34.84568455,0 136.52895142,34.84565364,0 136.52891016,34.84562377,0 136.52886776,34.84559499,0 136.52882419,34.84556737,0 136.52877943,34.84554096,0 136.52873352,34.84551577,0 136.52868664,34.84549174,0 136.52863897,34.84546881,0 136.52859071,34.84544690,0 136.52854202,34.84542595,0 136.52849278,34.84540618,0 136.52844248,34.84538811,0 136.52839082,34.84537216,0 136.52833818,34.84535833,0 136.52828494,34.84534666,0 136.52823115,34.84533752,0 136.52817678,34.84533131,0 136.52812199,34.84532701,0 136.52806709,34.84532284,0 136.52801219,34.84531827,0 136.52795727,34.84531358,0 136.52790233,34.84530908,0 136.52784735,34.84530507,0 136.52779231,34.84530177,0 136.52773725,34.84529921,0 136.52768215,34.84529738,0 136.52762704,34.84529630,0 136.52757193,34.84529598,0 136.52751682,34.84529642,0 136.52746173,34.84529764,0 136.52740667,34.84529963,0 136.52735165,34.84530240,0 136.52729668,34.84530597,0 136.52724178,34.84531029,0 136.52718695,34.84531534,0 136.52713222,34.84532108,0 136.52707758,34.84532749,0 136.52702306,34.84533452,0 136.52696867,34.84534216,0 136.52691442,34.84535036,0 136.52686032,34.84535909,0 136.52680638,34.84536835,0 136.52675261,34.84537817,0 136.52669902,34.84538860,0 136.52664560,34.84539967,0 136.52659236,34.84541144,0 136.52653932,34.84542390,0 136.52648649,34.84543700,0 136.52643389,34.84545069,0 136.52638152,34.84546493,0 136.52632939,34.84547963,0 136.52627739,34.84549461,0 136.52622542,34.84550966,0 136.52617335,34.84552458,0 136.52612110,34.84553917,0 136.52606873,34.84555356,0 136.52601640,34.84556807,0 136.52596427,34.84558301,0 136.52591252,34.84559869,0 136.52586125,34.84561530,0 136.52581046,34.84563284,0 136.52576015,34.84565125,0 136.52571030,34.84567049,0 136.52566090,34.84569052,0 136.52561194,34.84571130,0 136.52556341,34.84573278,0 136.52551531,34.84575492,0 136.52546761,34.84577768,0 136.52542033,34.84580103,0 136.52537349,34.84582497,0 136.52532713,34.84584953,0 136.52528128,34.84587471,0 136.52523598,34.84590053,0 136.52519127,34.84592702,0 136.52514718,34.84595418,0 136.52510376,34.84598203,0 136.52506103,34.84601059,0 136.52501903,34.84603987,0 136.52497777,34.84606986,0 136.52493728,34.84610054,0 136.52489756,34.84613191,0 136.52485863,34.84616394,0 136.52482049,34.84619662,0 136.52478317,34.84622993,0 136.52474666,34.84626385,0 136.52471099,34.84629838,0 136.52467617,34.84633350,0 136.52464222,34.84636918,0 136.52460915,34.84640542,0 136.52457699,34.84644220,0 136.52454577,34.84647952,0 136.52451550,34.84651735,0 136.52448621,34.84655568,0 136.52445791,34.84659451,0 136.52443064,34.84663381,0 136.52440440,34.84667356,0 136.52437910,34.84671373,0 136.52435462,34.84675426,0 136.52433085,34.84679510,0 136.52430768,34.84683619,0 136.52428497,34.84687748,0 136.52426263,34.84691891,0 136.52424052,34.84696044,0 136.52421854,34.84700200,0 136.52419657,34.84704356,0 136.52417456,34.84708508,0 136.52415253,34.84712658,0 136.52413046,34.84716806,0 136.52410835,34.84720951,0 136.52408621,34.84725095,0 136.52406402,34.84729237,0 136.52404180,34.84733378,0 136.52401954,34.84737517,0 136.52399723,34.84741656,0 136.52397489,34.84745795,0 136.52395253,34.84749934,0 136.52393017,34.84754073,0 136.52390783,34.84758213,0 136.52388552,34.84762355,0 136.52386328,34.84766499,0 136.52384110,34.84770646,0 136.52381902,34.84774795,0 136.52379704,34.84778948,0 136.52377511,34.84783102,0 136.52375302,34.84787250,0 136.52373054,34.84791384,0 136.52370745,34.84795497,0 136.52368335,34.84799568,0 136.52365674,34.84803514,0 136.52362585,34.84807230,0 136.52359040,34.84810682,0 136.52355158,34.84813896,0 136.52351014,34.84816884,0 136.52346632,34.84819638,0 136.52342035,34.84822147,0 136.52337246,34.84824400,0 136.52332289,34.84826389,0 136.52327187,34.84828102,0 136.52321961,34.84829530,0 136.52316637,34.84830662,0 136.52311236,34.84831489,0 136.52305779,34.84832020,0 136.52300282,34.84832296,0 136.52294764,34.84832361,0 136.52289239,34.84832258,0 136.52283725,34.84832030,0 136.52278228,34.84831699,0 136.52272749,34.84831263,0 136.52267285,34.84830721,0 136.52261836,34.84830072,0 136.52256403,34.84829313,0 136.52250993,34.84828439,0 136.52245612,34.84827442,0 136.52240270,34.84826316,0 136.52234973,34.84825054,0 136.52229730,34.84823650,0 136.52224548,34.84822096,0 136.52219435,34.84820387,0 136.52214399,34.84818515,0 136.52209466,34.84816458,0 136.52204763,34.84814116,0 136.52200444,34.84811367,0 136.52196592,34.84808187,0 136.52193220,34.84804641,0 136.52190266,34.84800816,0 136.52187603,34.84796812,0 136.52185164,34.84792703,0 136.52183065,34.84788494,0 136.52181411,34.84784182,0 136.52180206,34.84779786,0 136.52179434,34.84775330,0 136.52179078,34.84770835,0 136.52179124,34.84766323,0 136.52179555,34.84761817,0 136.52180355,34.84757339,0 136.52181510,34.84752911,0 136.52183003,34.84748555,0 136.52184818,34.84744292,0 136.52186933,34.84740126,0 136.52189328,34.84736060,0 136.52191981,34.84732096,0 136.52194870,34.84728235,0 136.52197972,34.84724479,0 136.52201267,34.84720831,0 136.52204733,34.84717292,0 136.52208347,34.84713863,0 136.52212090,34.84710544,0 136.52215946,34.84707322,0 136.52219902,34.84704186,0 136.52223942,34.84701122,0 136.52228051,34.84698118,0 136.52232217,34.84695160,0 136.52236423,34.84692237,0 136.52240656,34.84689334,0 136.52244900,34.84686441,0 136.52249145,34.84683545,0 136.52253390,34.84680649,0 136.52257639,34.84677758,0 136.52261898,34.84674875,0 136.52266170,34.84672007,0 136.52270459,34.84669158,0 136.52274770,34.84666332,0 136.52279107,34.84663535,0 136.52283474,34.84660771,0 136.52287874,34.84658043,0 136.52292305,34.84655350,0 136.52296763,34.84652688,0 136.52301247,34.84650055,0 136.52305754,34.84647447,0 136.52310280,34.84644863,0 136.52314824,34.84642298,0 136.52319383,34.84639751,0 136.52323954,34.84637218,0 136.52328534,34.84634697,0 136.52333124,34.84632188,0 136.52337723,34.84629690,0 136.52342332,34.84627204,0 136.52346949,34.84624729,0 136.52351576,34.84622265,0 136.52356212,34.84619813,0 136.52360858,34.84617372,0 136.52365513,34.84614943,0 136.52370177,34.84612526,0 136.52374852,34.84610120,0 136.52379536,34.84607728,0 136.52384231,34.84605349,0 136.52388937,34.84602986,0 136.52393654,34.84600638,0 136.52398383,34.84598306,0 136.52403125,34.84595992,0 136.52407879,34.84593696,0 136.52412647,34.84591419,0 136.52417428,34.84589163,0 136.52422223,34.84586927,0 136.52427033,34.84584713,0 136.52431858,34.84582522,0 136.52436698,34.84580355,0 136.52441554,34.84578212,0 136.52446426,34.84576094,0 136.52451315,34.84574002,0 136.52456221,34.84571938,0 136.52461144,34.84569899,0 136.52466082,34.84567885,0 136.52471033,34.84565893,0 136.52475998,34.84563922,0 136.52480975,34.84561970,0 136.52485962,34.84560035,0 136.52490959,34.84558117,0 136.52495965,34.84556212,0 136.52500977,34.84554319,0 136.52505996,34.84552436,0 136.52511021,34.84550563,0 136.52516049,34.84548696,0 136.52521079,34.84546835,0 136.52526112,34.84544977,0 136.52531145,34.84543121,0 136.52536178,34.84541265,0 136.52541208,34.84539407,0 136.52546236,34.84537546,0 136.52551265,34.84535690,0 136.52556305,34.84533856,0 136.52561365,34.84532067,0 136.52566457,34.84530343,0 136.52571591,34.84528702,0 136.52576765,34.84527142,0 136.52581968,34.84525642,0 136.52587189,34.84524181,0 136.52592419,34.84522735,0 136.52597648,34.84521290,0 136.52602876,34.84519843,0 136.52608102,34.84518394,0 136.52613329,34.84516945,0 136.52618554,34.84515495,0 136.52623779,34.84514045,0 136.52629004,34.84512595,0 136.52634229,34.84511144,0 136.52639454,34.84509694,0 136.52644680,34.84508245,0 136.52649905,34.84506795,0 136.52655131,34.84505346,0 136.52660356,34.84503895,0 136.52665581,34.84502444,0 136.52670805,34.84500991,0 136.52676028,34.84499536,0 136.52681251,34.84498079,0 136.52686472,34.84496619,0 136.52691692,34.84495156,0 136.52696911,34.84493690,0 136.52702128,34.84492220,0 136.52707344,34.84490746,0 136.52712557,34.84489268,0 136.52717769,34.84487784,0 136.52722978,34.84486296,0 136.52728185,34.84484801,0 136.52733389,34.84483301,0 136.52738590,34.84481794,0 136.52743789,34.84480281,0 136.52748986,34.84478763,0 136.52754181,34.84477240,0 136.52759374,34.84475713,0 136.52764565,34.84474183,0 136.52769755,34.84472649,0 136.52774944,34.84471113,0 136.52780133,34.84469575,0 136.52785320,34.84468036,0 136.52790508,34.84466496,0 136.52795695,34.84464956,0 136.52800882,34.84463416,0 136.52806070,34.84461877,0 136.52811259,34.84460340,0 136.52816448,34.84458805,0 136.52821638,34.84457273,0 136.52826830,34.84455744,0 136.52832024,34.84454219,0 136.52837219,34.84452697,0 136.52842415,34.84451179,0 136.52847612,34.84449663,0 136.52852810,34.84448149,0 136.52858009,34.84446636,0 136.52863208,34.84445125,0 136.52868408,34.84443615,0 136.52873608,34.84442105,0 136.52878808,34.84440596,0 136.52884008,34.84439085,0 136.52889207,34.84437574,0 136.52894406,34.84436061,0 136.52899605,34.84434547,0 136.52904802,34.84433030,0 136.52909998,34.84431510,0 136.52915193,34.84429987,0 136.52920387,34.84428461,0 136.52925579,34.84426931,0 136.52930770,34.84425398,0 136.52935960,34.84423863,0 136.52941149,34.84422326,0 136.52946339,34.84420790,0 136.52951529,34.84419255,0 136.52956720,34.84417722,0 136.52961912,34.84416192,0 136.52967105,34.84414666,0 136.52972301,34.84413145,0 136.52977499,34.84411630,0 136.52982700,34.84410122,0 136.52987904,34.84408622,0 136.52993111,34.84407131,0 136.52998323,34.84405651,0 136.53003539,34.84404181,0 136.53008760,34.84402724,0 136.53013986,34.84401280,0 136.53019217,34.84399849,0 136.53024453,34.84398430,0 136.53029693,34.84397018,0 136.53034935,34.84395612,0 136.53040178,34.84394208,0 136.53045422,34.84392803,0 136.53050666,34.84391394,0 136.53055908,34.84389977,0 136.53061147,34.84388551,0 136.53066385,34.84387116,0 136.53071630,34.84385705,0 136.53076900,34.84384367,0 136.53082209,34.84383149,0 136.53087572,34.84382099,0 136.53092998,34.84381259,0 136.53098469,34.84380656,0 136.53103962,34.84380312,0 136.53109454,34.84380248,0 136.53114920,34.84380484,0 136.53120353,34.84381006,0 136.53125754,34.84381776,0 136.53131127,34.84382754,0 136.53136473,34.84383902,0 136.53141794,34.84385181,0 136.53147094,34.84386551,0 136.53152375,34.84387974,0 136.53157639,34.84389411,0 136.53162887,34.84390823,0 136.53168120,34.84392208,0 136.53173331,34.84393605,0 136.53178515,34.84395060,0 136.53183664,34.84396614,0 136.53188776,34.84398297,0 136.53193856,34.84400084,0 136.53198914,34.84401936,0 136.53203958,34.84403816,0 136.53208996,34.84405688,0 136.53214016,34.84407563,0 136.53218995,34.84409485,0 136.53223908,34.84411499,0 136.53228731,34.84413651,0 136.53233445,34.84415974,0 136.53238069,34.84418442,0 136.53242638,34.84420998,0 136.53247188,34.84423585,0 136.53251754,34.84426149,0 136.53256343,34.84428674,0 136.53260929,34.84431192,0 136.53265482,34.84433739,0 136.53269974,34.84436350,0 136.53274379,34.84439059,0 136.53278696,34.84441867,0 136.53282942,34.84444753,0 136.53287137,34.84447695,0 136.53291297,34.84450671,0 136.53295436,34.84453666,0 136.53299558,34.84456677,0 136.53303663,34.84459703,0 136.53307753,34.84462742,0 136.53311830,34.84465794,0 136.53315894,34.84468855,0 136.53319948,34.84471927,0 136.53323992,34.84475006,0 136.53328029,34.84478092,0 136.53332059,34.84481183,0 136.53336084,34.84484279,0 136.53340106,34.84487377,0 136.53344126,34.84490477,0 136.53348145,34.84493577,0 136.53352165,34.84496675,0 136.53356187,34.84499771,0 136.53360213,34.84502864,0 136.53364245,34.84505951,0 136.53368282,34.84509033,0 136.53372324,34.84512110,0 136.53376368,34.84515185,0 136.53380415,34.84518259,0 136.53384462,34.84521333,0 136.53388508,34.84524410,0 136.53392552,34.84527491,0 136.53396591,34.84530577,0 136.53400625,34.84533670,0 136.53404655,34.84536770,0 136.53408684,34.84539870,0 136.53412721,34.84542963,0 136.53416772,34.84546042,0 136.53420845,34.84549097,0 136.53424945,34.84552122,0 136.53429080,34.84555109,0 136.53433257,34.84558051,0 136.53437482,34.84560938,0 136.53441761,34.84563767,0 136.53446082,34.84566556,0 136.53450428,34.84569330,0 136.53454783,34.84572116,0 136.53459129,34.84574940,0 136.53463481,34.84577792,0 136.53467958,34.84580535,0 136.53472697,34.84582992,0 136.53477702,34.84584808,0 136.53482888,34.84585538,0 136.53488133,34.84585119,0 136.53493291,34.84583751,0 136.53498215,34.84581640,0 136.53502762,34.84578990,0 136.53506905,34.84575997,0 136.53510854,34.84572836,0 136.53514835,34.84569678,0 136.53519029,34.84566684,0 136.53523582,34.84564030,0 136.53528505,34.84562012,0 136.53533759,34.84560962,0 136.53539172,34.84561007,0 136.53544428,34.84562044,0 136.53549290,34.84563936,0 136.53553802,34.84566474,0 136.53558069,34.84569435,0 136.53562196,34.84572594,0 136.53566283,34.84575739,0 136.53570389,34.84578785,0 136.53574544,34.84581728,0 136.53578776,34.84584565,0 136.53583116,34.84587294,0 136.53587582,34.84589906,0 136.53592179,34.84592383,0 136.53596904,34.84594705,0 136.53601760,34.84596854,0 136.53606744,34.84598810,0 136.53611846,34.84600563,0 136.53617049,34.84602102,0 136.53622338,34.84603420,0 136.53627698,34.84604506,0 136.53633115,34.84605352,0 136.53638572,34.84605949,0 136.53644055,34.84606287,0 136.53649548,34.84606357,0 136.53655036,34.84606154,0 136.53660514,34.84605715,0 136.53665981,34.84605101,0 136.53671436,34.84604377,0 136.53676878,34.84603604,0 136.53682306,34.84602820,0 136.53687724,34.84602014,0 136.53693132,34.84601170,0 136.53698531,34.84600272,0 136.53703922,34.84599304,0 136.53709289,34.84598238,0 136.53714610,34.84597043,0 136.53719866,34.84595686,0 136.53725034,34.84594137,0 136.53730102,34.84592378,0 136.53735077,34.84590437,0 136.53739972,34.84588349,0 136.53744800,34.84586151,0 136.53749573,34.84583875,0 136.53754293,34.84581534,0 136.53758960,34.84579128,0 136.53763571,34.84576656,0 136.53768127,34.84574117,0 136.53772625,34.84571510,0 136.53777064,34.84568835,0 136.53781442,34.84566092,0 136.53785759,34.84563278,0 136.53790012,34.84560394,0 136.53794200,34.84557441,0 136.53798321,34.84554423,0 136.53802374,34.84551343,0 136.53806356,34.84548206,0 136.53810266,34.84545015,0 136.53814112,34.84541777,0 136.53817906,34.84538500,0 136.53821659,34.84535192,0 136.53825385,34.84531862,0 136.53829092,34.84528516,0 136.53832781,34.84525154,0 136.53836454,34.84521779,0 136.53840111,34.84518391,0 136.53843755,34.84514992,0 136.53847386,34.84511582,0 136.53851005,34.84508164,0 136.53854614,34.84504738,0 136.53858213,34.84501306,0 136.53861805,34.84497869,0</coordinates></LineString></Placemark></Document></kml>
